{"type":"FeatureCollection","features":[{"type":"Feature","properties":{"n":"環島東路一段","v":"金沙鎮","w":1.55,"c":1.55,"r":2},"geometry":{"type":"MultiPolygon","coordinates":[[[[118.427522,24.477722],[118.427826,24.477639],[118.427829,24.47762],[118.427509,24.47771],[118.427522,24.477722]]]]}},{"type":"Feature","properties":{"n":"環島東路二段","v":"金沙鎮","w":2.2,"c":2.2,"r":4},"geometry":{"type":"MultiPolygon","coordinates":[[[[118.428763,24.477439],[118.428763,24.477434],[118.429502,24.477276],[118.429749,24.477185],[118.429898,24.477079],[118.430008,24.476947],[118.430062,24.476853],[118.43075,24.47545],[118.430721,24.475437],[118.430445,24.476016],[118.430042,24.476846],[118.429992,24.476938],[118.42988,24.47707],[118.429739,24.477171],[118.429495,24.477259],[118.428752,24.477418],[118.428763,24.477439]]]]}},{"type":"Feature","properties":{"n":"成功路","v":"金沙鎮","w":1,"c":1,"r":20},"geometry":{"type":"MultiPolygon","coordinates":[[[[118.410731,24.490387],[118.412557,24.489118],[118.412525,24.489093],[118.410706,24.490357],[118.410731,24.490387]]]]}},{"type":"Feature","properties":{"n":"2-22號道路(銘傳大學聯外道路-東美亭)","v":"金沙鎮","w":4,"c":4,"r":5},"geometry":{"type":"MultiPolygon","coordinates":[[[[118.403364,24.495158],[118.403567,24.496957],[118.403733,24.497134],[118.403939,24.497265],[118.404777,24.497736],[118.404791,24.4977],[118.40401,24.497268],[118.403772,24.497109],[118.403619,24.496957],[118.403402,24.495151],[118.403364,24.495158]]]]}},{"type":"Feature","properties":{"n":"成功路","v":"金沙鎮","w":2,"c":2,"r":10},"geometry":{"type":"MultiPolygon","coordinates":[[[[118.410368,24.490329],[118.410612,24.490307],[118.411584,24.489655],[118.412729,24.488857],[118.412684,24.488833],[118.410587,24.490265],[118.410384,24.490279],[118.410288,24.490194],[118.410248,24.490235],[118.410368,24.490329]]]]}},{"type":"Feature","properties":{"n":"2-22號道路(沙青路-銘傳大學聯外道路)","v":"金沙鎮","w":4,"c":4,"r":14},"geometry":{"type":"MultiPolygon","coordinates":[[[[118.404838,24.497716],[118.411868,24.497942],[118.411869,24.497851],[118.404844,24.497682],[118.404838,24.497716]]]]}},{"type":"Feature","properties":{"n":"成功路","v":"金沙鎮","w":4,"c":4,"r":null},"geometry":{"type":"MultiPolygon","coordinates":[[[[118.412971,24.488693],[118.414927,24.487385],[118.414902,24.487343],[118.412935,24.488664],[118.412971,24.488693]]]]}},{"type":"Feature","properties":{"n":"西海路三段","v":"金城鎮","w":2.13,"c":2,"r":2},"geometry":{"type":"MultiPolygon","coordinates":[[[[118.311909,24.422351],[118.311434,24.422113],[118.311243,24.421975],[118.310665,24.421364],[118.310616,24.421241],[118.310603,24.421258],[118.310649,24.421381],[118.311231,24.421985],[118.311426,24.422127],[118.311905,24.422367],[118.311909,24.422351]]]]}},{"type":"Feature","properties":{"n":"民權路","v":"金城鎮","w":3,"c":2,"r":5},"geometry":{"type":"MultiPolygon","coordinates":[[[[118.320284,24.439266],[118.319887,24.438806],[118.319839,24.438836],[118.320262,24.4393],[118.320284,24.439266]]]]}},{"type":"Feature","properties":{"n":"西海路三段","v":"金城鎮","w":2.3,"c":2,"r":17},"geometry":{"type":"MultiPolygon","coordinates":[[[[118.315542,24.429249],[118.315585,24.427529],[118.315617,24.426718],[118.315642,24.425635],[118.315626,24.425558],[118.315551,24.425373],[118.315011,24.424282],[118.314726,24.423825],[118.314521,24.423609],[118.31424,24.423436],[118.311913,24.422346],[118.311906,24.422361],[118.314233,24.423454],[118.314508,24.423624],[118.314717,24.423842],[118.315001,24.424308],[118.315542,24.425397],[118.315611,24.425568],[118.315625,24.425639],[118.315563,24.427538],[118.315515,24.429249],[118.315542,24.429249]]]]}},{"type":"Feature","properties":{"n":"民權路","v":"金城鎮","w":2.5,"c":2.5,"r":18},"geometry":{"type":"MultiPolygon","coordinates":[[[[118.321084,24.439908],[118.32109,24.439899],[118.320961,24.43981],[118.320757,24.439618],[118.320415,24.439266],[118.320027,24.438851],[118.319887,24.43871],[118.319775,24.438579],[118.3193,24.438086],[118.318382,24.437082],[118.318372,24.437098],[118.318977,24.437762],[118.319143,24.437935],[118.319287,24.438095],[118.319761,24.438587],[118.319875,24.438721],[118.320015,24.438861],[118.32014,24.439001],[118.320741,24.43963],[118.320948,24.439825],[118.321082,24.439911],[118.321084,24.439908]]]]}},{"type":"Feature","properties":{"n":"環島西路一段","v":"金城鎮","w":3.96,"c":2.16,"r":2},"geometry":{"type":"MultiPolygon","coordinates":[[[[118.321377,24.430279],[118.321379,24.430287],[118.321385,24.429871],[118.321365,24.429869],[118.321358,24.430279],[118.321377,24.430279]]]]}},{"type":"Feature","properties":{"n":"夏墅村莊邊界-延平郡王祠","v":"金城鎮","w":1.8,"c":1.8,"r":2},"geometry":{"type":"MultiPolygon","coordinates":[[[[118.310526,24.426111],[118.309434,24.425041],[118.305352,24.425099],[118.305362,24.425146],[118.309413,24.425086],[118.310498,24.426144],[118.310526,24.426111]]]]}},{"type":"Feature","properties":{"n":"無正式路名","v":"金城鎮","w":1.52,"c":1.52,"r":2},"geometry":{"type":"MultiPolygon","coordinates":[[[[118.305344,24.425108],[118.304844,24.425104],[118.304776,24.425086],[118.304159,24.424634],[118.30414,24.424652],[118.304764,24.425103],[118.30485,24.425123],[118.305341,24.425127],[118.305344,24.425108]]]]}},{"type":"Feature","properties":{"n":"莒光湖-夏墅村莊邊界","v":"金城鎮","w":1.24,"c":1.24,"r":4},"geometry":{"type":"MultiPolygon","coordinates":[[[[118.313952,24.42763],[118.313913,24.427641],[118.312543,24.427688],[118.311995,24.427726],[118.311381,24.427142],[118.310529,24.426136],[118.310499,24.426161],[118.311355,24.427155],[118.311989,24.427753],[118.313953,24.427655],[118.313952,24.42763]]]]}},{"type":"Feature","properties":{"n":"民族路","v":"金城鎮","w":3,"c":3,"r":10},"geometry":{"type":"MultiPolygon","coordinates":[[[[118.313616,24.431224],[118.313663,24.431147],[118.31373,24.431083],[118.314241,24.430644],[118.314373,24.430557],[118.314485,24.430505],[118.314669,24.430437],[118.314918,24.430376],[118.315468,24.430254],[118.315495,24.429903],[118.315436,24.429913],[118.315424,24.430206],[118.314657,24.430395],[118.314374,24.430503],[118.314216,24.430602],[118.313851,24.430906],[118.313631,24.431111],[118.313562,24.431199],[118.313616,24.431224]]]]}},{"type":"Feature","properties":{"n":"民生路","v":"金城鎮","w":3.76,"c":1.5,"r":20},"geometry":{"type":"MultiPolygon","coordinates":[[[[118.318377,24.436939],[118.320067,24.433472],[118.319964,24.433446],[118.318313,24.43689],[118.318377,24.436939]]]]}},{"type":"Feature","properties":{"n":"民權路","v":"金城鎮","w":2,"c":2,"r":12},"geometry":{"type":"MultiPolygon","coordinates":[[[[118.318354,24.437102],[118.318343,24.437106],[118.316137,24.434736],[118.316113,24.43475],[118.31687,24.435566],[118.31833,24.437124],[118.318354,24.437102]]]]}},{"type":"Feature","properties":{"n":"民生路","v":"金城鎮","w":3.4,"c":1.7,"r":15},"geometry":{"type":"MultiPolygon","coordinates":[[[[118.31845,24.437057],[118.318517,24.437079],[118.319116,24.435889],[118.319812,24.43441],[118.32055,24.432799],[118.320473,24.43275],[118.319761,24.434349],[118.31845,24.437057]]]]}},{"type":"Feature","properties":{"n":"民權路","v":"金城鎮","w":2,"c":2,"r":3},"geometry":{"type":"MultiPolygon","coordinates":[[[[118.318356,24.437066],[118.318377,24.437037],[118.317834,24.436466],[118.317529,24.436127],[118.31621,24.434695],[118.316176,24.434724],[118.316878,24.435471],[118.317801,24.436478],[118.318356,24.437066]]]]}},{"type":"Feature","properties":{"n":"民權路","v":"金城鎮","w":2,"c":2,"r":3},"geometry":{"type":"MultiPolygon","coordinates":[[[[118.316152,24.434691],[118.316179,24.434656],[118.316143,24.43453],[118.315013,24.433382],[118.314871,24.433314],[118.314831,24.433349],[118.314974,24.433418],[118.316104,24.43456],[118.316152,24.434691]]]]}},{"type":"Feature","properties":{"n":"士校路","v":"金湖鎮","w":2,"c":2,"r":4},"geometry":{"type":"MultiPolygon","coordinates":[[[[118.422577,24.440352],[118.422524,24.440389],[118.424231,24.442381],[118.424264,24.442337],[118.422577,24.440352]]]]}},{"type":"Feature","properties":{"n":"士校路","v":"金湖鎮","w":0.9,"c":0.9,"r":7},"geometry":{"type":"MultiPolygon","coordinates":[[[[118.424692,24.442667],[118.425954,24.444109],[118.427439,24.445459],[118.427518,24.445389],[118.42602,24.444062],[118.424758,24.44262],[118.424692,24.442667]]]]}},{"type":"Feature","properties":{"n":"太湖路二段","v":"金湖鎮","w":1.8,"c":1.5,"r":25},"geometry":{"type":"MultiPolygon","coordinates":[[[[118.413313,24.440639],[118.413308,24.440644],[118.413634,24.440535],[118.415038,24.440104],[118.416674,24.439589],[118.420756,24.438152],[118.420748,24.43814],[118.416673,24.43957],[118.415044,24.440088],[118.41331,24.44063],[118.413313,24.440639]]]]}},{"type":"Feature","properties":{"n":"太湖路二段","v":"金湖鎮","w":2.3,"c":1.9,"r":22},"geometry":{"type":"MultiPolygon","coordinates":[[[[118.413434,24.440688],[118.413484,24.440775],[118.416634,24.439779],[118.420707,24.438273],[118.420735,24.438178],[118.416767,24.439638],[118.413434,24.440688]]]]}},{"type":"Feature","properties":{"n":"復興路","v":"金湖鎮","w":2,"c":2,"r":null},"geometry":{"type":"MultiPolygon","coordinates":[[[[118.418166,24.440221],[118.418164,24.440226],[118.418981,24.440333],[118.419194,24.440387],[118.420686,24.440943],[118.420774,24.440969],[118.421023,24.441004],[118.421337,24.441039],[118.421452,24.441039],[118.422576,24.440313],[118.422569,24.440298],[118.421447,24.441028],[118.421353,24.441029],[118.420816,24.440962],[118.420756,24.440952],[118.420683,24.440931],[118.419462,24.440471],[118.419193,24.440376],[118.418993,24.440325],[118.418166,24.440216],[118.418166,24.440221]]]]}},{"type":"Feature","properties":{"n":"中山路","v":"金湖鎮","w":1.5,"c":1.5,"r":6},"geometry":{"type":"MultiPolygon","coordinates":[[[[118.364095,24.438608],[118.364006,24.438641],[118.364925,24.441676],[118.365023,24.441656],[118.364095,24.438608]]]]}},{"type":"Feature","properties":{"n":"中山路","v":"金湖鎮","w":1.5,"c":1.5,"r":4},"geometry":{"type":"MultiPolygon","coordinates":[[[[118.364202,24.438595],[118.365148,24.441665],[118.365252,24.441638],[118.364286,24.438578],[118.364202,24.438595]]]]}},{"type":"Feature","properties":{"n":"黃海路","v":"金湖鎮","w":3,"c":3,"r":8},"geometry":{"type":"MultiPolygon","coordinates":[[[[118.413289,24.440825],[118.413676,24.441376],[118.41405,24.441878],[118.414354,24.442298],[118.414421,24.442246],[118.413336,24.440789],[118.413289,24.440825]]]]}},{"type":"Feature","properties":{"n":"太湖路三段","v":"金湖鎮","w":4.23,"c":2.26,"r":10},"geometry":{"type":"MultiPolygon","coordinates":[[[[118.420846,24.438208],[118.420962,24.43831],[118.423995,24.437235],[118.427288,24.436229],[118.427291,24.436121],[118.423998,24.437104],[118.420846,24.438208]]]]}},{"type":"Feature","properties":{"n":"黃海路","v":"金湖鎮","w":2.5,"c":2.25,"r":12},"geometry":{"type":"MultiPolygon","coordinates":[[[[118.414285,24.442384],[118.414205,24.442442],[118.41683,24.445913],[118.416897,24.445854],[118.414285,24.442384]]]]}},{"type":"Feature","properties":{"n":"士校路","v":"金湖鎮","w":2,"c":1.75,"r":2},"geometry":{"type":"MultiPolygon","coordinates":[[[[118.420806,24.43831],[118.42073,24.438354],[118.422396,24.440294],[118.422488,24.440229],[118.420806,24.43831]]]]}},{"type":"Feature","properties":{"n":"市港路","v":"金湖鎮","w":3,"c":2,"r":15},"geometry":{"type":"MultiPolygon","coordinates":[[[[118.41316,24.440513],[118.413243,24.440468],[118.410076,24.435914],[118.409982,24.435948],[118.41316,24.440513]]]]}},{"type":"Feature","properties":{"n":"環島南路一段","v":"金湖鎮","w":2,"c":1.4,"r":2},"geometry":{"type":"MultiPolygon","coordinates":[[[[118.425405,24.431338],[118.425891,24.431002],[118.425826,24.430953],[118.425353,24.431291],[118.425405,24.431338]]]]}},{"type":"Feature","properties":{"n":"市港路","v":"金湖鎮","w":3,"c":2,"r":15},"geometry":{"type":"MultiPolygon","coordinates":[[[[118.40986,24.435991],[118.409755,24.436049],[118.412999,24.440628],[118.413053,24.440545],[118.40986,24.435991]]]]}},{"type":"Feature","properties":{"n":"黃海路","v":"金湖鎮","w":3.16,"c":1.5,"r":4},"geometry":{"type":"MultiPolygon","coordinates":[[[[118.425759,24.451804],[118.425605,24.451904],[118.426978,24.453454],[118.427084,24.453388],[118.425759,24.451804]]]]}},{"type":"Feature","properties":{"n":"環島南路一段","v":"金湖鎮","w":2.8,"c":1.5,"r":4},"geometry":{"type":"MultiPolygon","coordinates":[[[[118.409954,24.435861],[118.411184,24.435679],[118.41116,24.435607],[118.409892,24.4358],[118.409954,24.435861]]]]}},{"type":"Feature","properties":{"n":"環島南路二段","v":"金湖鎮","w":2.9,"c":1.5,"r":4},"geometry":{"type":"MultiPolygon","coordinates":[[[[118.409823,24.435918],[118.409785,24.435835],[118.408879,24.436166],[118.408903,24.436249],[118.409823,24.435918]]]]}},{"type":"Feature","properties":{"n":"環島南路三段","v":"金湖鎮","w":2.3,"c":1.2,"r":2},"geometry":{"type":"MultiPolygon","coordinates":[[[[118.376246,24.43762],[118.378358,24.437704],[118.378736,24.437735],[118.378674,24.437596],[118.376237,24.437518],[118.376235,24.437512],[118.375986,24.43758],[118.375988,24.437586],[118.376078,24.437635],[118.376246,24.43762]]]]}},{"type":"Feature","properties":{"n":"士校路","v":"金湖鎮","w":1.6,"c":1,"r":2},"geometry":{"type":"MultiPolygon","coordinates":[[[[118.420698,24.43812],[118.419152,24.436342],[118.419099,24.436383],[118.420637,24.438158],[118.420698,24.43812]]]]}},{"type":"Feature","properties":{"n":"大學路","v":"金寧鄉","w":2.4,"c":1.15,"r":8},"geometry":{"type":"MultiPolygon","coordinates":[[[[118.323916,24.448545],[118.32399,24.448617],[118.325235,24.447523],[118.325471,24.447034],[118.32546,24.446629],[118.325567,24.446405],[118.326973,24.445145],[118.326887,24.445067],[118.325507,24.446308],[118.325357,24.446571],[118.325357,24.447021],[118.325142,24.44748],[118.323916,24.448545]]]]}},{"type":"Feature","properties":{"n":"林堡路","v":"金寧鄉","w":1.25,"c":1.25,"r":2},"geometry":{"type":"MultiPolygon","coordinates":[[[[118.337075,24.44667],[118.337152,24.446588],[118.33683,24.446415],[118.33654,24.445944],[118.336456,24.445991],[118.336758,24.446485],[118.337075,24.44667]]]]}},{"type":"Feature","properties":{"n":"林堡路","v":"金寧鄉","w":1.25,"c":0.8,"r":12},"geometry":{"type":"MultiPolygon","coordinates":[[[[118.336224,24.445789],[118.335475,24.444334],[118.333785,24.44286],[118.33372,24.442966],[118.335386,24.44444],[118.336138,24.445881],[118.336224,24.445789]]]]}},{"type":"Feature","properties":{"n":"林湖路","v":"金寧鄉","w":2.18,"c":0.9,"r":2},"geometry":{"type":"MultiPolygon","coordinates":[[[[118.330268,24.438401],[118.330316,24.438005],[118.33023,24.437729],[118.33013,24.437512],[118.330077,24.437583],[118.33015,24.437811],[118.330237,24.438016],[118.330151,24.438396],[118.330268,24.438401]]]]}},{"type":"Feature","properties":{"n":"瓊安路","v":"金寧鄉","w":1.85,"c":1.6,"r":2},"geometry":{"type":"MultiPolygon","coordinates":[[[[118.325197,24.461193],[118.323944,24.460049],[118.323864,24.460119],[118.325156,24.461276],[118.325197,24.461193]]]]}},{"type":"Feature","properties":{"n":"頂林路","v":"金寧鄉","w":1.2,"c":1.2,"r":17},"geometry":{"type":"MultiPolygon","coordinates":[[[[118.316752,24.474747],[118.317947,24.473145],[118.318859,24.471944],[118.319784,24.470766],[118.32071,24.469518],[118.320992,24.469153],[118.320915,24.469104],[118.31972,24.470706],[118.318768,24.47193],[118.316674,24.474722],[118.316752,24.474747]]]]}},{"type":"Feature","properties":{"n":"頂林路","v":"金寧鄉","w":1.2,"c":1.2,"r":26},"geometry":{"type":"MultiPolygon","coordinates":[[[[118.321,24.469137],[118.322669,24.466971],[118.322716,24.466882],[118.32384,24.464008],[118.324089,24.46332],[118.32412,24.463117],[118.324174,24.463005],[118.324348,24.462799],[118.324609,24.462476],[118.324974,24.461909],[118.325179,24.461471],[118.325313,24.461271],[118.325294,24.461246],[118.32516,24.461447],[118.324941,24.461891],[118.324577,24.462457],[118.324156,24.462975],[118.324081,24.463105],[118.324051,24.463313],[118.323795,24.464019],[118.322685,24.466852],[118.32261,24.466982],[118.321598,24.468289],[118.320949,24.469107],[118.321,24.469137]]]]}},{"type":"Feature","properties":{"n":"頂林路","v":"金寧鄉","w":1.5,"c":1.5,"r":12},"geometry":{"type":"MultiPolygon","coordinates":[[[[118.323821,24.464189],[118.323865,24.4642],[118.324032,24.463793],[118.324184,24.463378],[118.324234,24.463146],[118.324289,24.463046],[118.32469,24.46254],[118.325075,24.46195],[118.325259,24.461541],[118.325374,24.46134],[118.325343,24.461298],[118.325234,24.461481],[118.325105,24.461765],[118.32503,24.461913],[118.324665,24.462491],[118.324244,24.463009],[118.324183,24.463122],[118.324146,24.46333],[118.323987,24.463763],[118.323821,24.464189]]]]}},{"type":"Feature","properties":{"n":"頂林路","v":"金寧鄉","w":1.8,"c":1.8,"r":6},"geometry":{"type":"MultiPolygon","coordinates":[[[[118.325337,24.461192],[118.325531,24.460975],[118.327485,24.458903],[118.328252,24.458111],[118.328226,24.458074],[118.32744,24.45889],[118.326493,24.459894],[118.325512,24.460939],[118.325312,24.461168],[118.325337,24.461192]]]]}},{"type":"Feature","properties":{"n":"頂林路","v":"金寧鄉","w":1.6,"c":1.6,"r":10},"geometry":{"type":"MultiPolygon","coordinates":[[[[118.328275,24.45809],[118.329209,24.457086],[118.330523,24.455695],[118.330776,24.455466],[118.332912,24.453726],[118.334178,24.45271],[118.334147,24.452673],[118.332867,24.453701],[118.330757,24.45543],[118.330511,24.455647],[118.328237,24.458059],[118.328275,24.45809]]]]}},{"type":"Feature","properties":{"n":"頂林路","v":"金寧鄉","w":1.6,"c":1.6,"r":18},"geometry":{"type":"MultiPolygon","coordinates":[[[[118.334193,24.452681],[118.335613,24.451525],[118.336747,24.450614],[118.337775,24.449808],[118.337743,24.449772],[118.336722,24.450577],[118.335575,24.4515],[118.334169,24.452651],[118.334193,24.452681]]]]}},{"type":"Feature","properties":{"n":"大學路","v":"金寧鄉","w":2.4,"c":1.18,"r":8},"geometry":{"type":"MultiPolygon","coordinates":[[[[118.323749,24.448431],[118.324033,24.448177],[118.325036,24.447391],[118.325224,24.447005],[118.32524,24.446595],[118.325262,24.446493],[118.32539,24.446244],[118.325543,24.44612],[118.326769,24.444982],[118.326677,24.444894],[118.325315,24.446183],[118.325175,24.446447],[118.325143,24.446625],[118.325121,24.446985],[118.32496,24.447337],[118.323667,24.448362],[118.323749,24.448431]]]]}},{"type":"Feature","properties":{"n":"柏玉路","v":"金寧鄉","w":4.2,"c":1.72,"r":14},"geometry":{"type":"MultiPolygon","coordinates":[[[[118.321912,24.431557],[118.32329,24.431751],[118.32458,24.432374],[118.32604,24.433643],[118.327104,24.435093],[118.328345,24.436833],[118.329414,24.438117],[118.329954,24.43844],[118.330035,24.438346],[118.32952,24.438026],[118.326983,24.434687],[118.326275,24.4336],[118.324738,24.432308],[118.323422,24.431664],[118.32194,24.431447],[118.321912,24.431557]]]]}},{"type":"Feature","properties":{"n":"東湖路","v":"金寧鄉","w":2,"c":2,"r":12},"geometry":{"type":"MultiPolygon","coordinates":[[[[118.338805,24.422784],[118.338901,24.422867],[118.340479,24.422213],[118.341588,24.421516],[118.34215,24.420858],[118.343186,24.419945],[118.343723,24.419191],[118.343785,24.418738],[118.343269,24.418443],[118.344599,24.417177],[118.344499,24.417008],[118.344204,24.417361],[118.343035,24.418438],[118.343575,24.418806],[118.343543,24.419092],[118.343085,24.419776],[118.342048,24.420713],[118.34154,24.421349],[118.340482,24.422046],[118.339299,24.422527],[118.338805,24.422784]]]]}},{"type":"Feature","properties":{"n":"東湖路","v":"金寧鄉","w":2,"c":2,"r":10},"geometry":{"type":"MultiPolygon","coordinates":[[[[118.341196,24.429618],[118.33816,24.427583],[118.337879,24.426098],[118.337944,24.425407],[118.338651,24.422793],[118.338417,24.422765],[118.337739,24.425379],[118.337644,24.426141],[118.337977,24.427699],[118.341115,24.429712],[118.341089,24.429711],[118.341271,24.429762],[118.341196,24.429618]]]]}},{"type":"Feature","properties":{"n":"寧湖路","v":"金寧鄉","w":1.2,"c":0.9,"r":2},"geometry":{"type":"MultiPolygon","coordinates":[[[[118.312889,24.478294],[118.31172,24.47684],[118.311612,24.477006],[118.312731,24.47836],[118.312889,24.478294]]]]}},{"type":"Feature","properties":{"n":"環島西路二段","v":"金寧鄉","w":3.5,"c":3.5,"r":3},"geometry":{"type":"MultiPolygon","coordinates":[[[[118.320877,24.439834],[118.320836,24.439896],[118.320887,24.439944],[118.320858,24.440087],[118.320565,24.441013],[118.320615,24.441085],[118.320949,24.440088],[118.320953,24.439907],[118.320877,24.439834]]]]}},{"type":"Feature","properties":{"n":"慈湖路一段","v":"金寧鄉","w":2.35,"c":2.35,"r":16},"geometry":{"type":"MultiPolygon","coordinates":[[[[118.311476,24.444076],[118.311867,24.437391],[118.312997,24.43574],[118.312868,24.435667],[118.311685,24.437364],[118.311303,24.444116],[118.311476,24.444076]]]]}},{"type":"Feature","properties":{"n":"桃園路","v":"金寧鄉","w":2,"c":2,"r":8},"geometry":{"type":"MultiPolygon","coordinates":[[[[118.330461,24.432328],[118.33088,24.432184],[118.331496,24.431383],[118.332418,24.430946],[118.333256,24.430794],[118.333934,24.430782],[118.334222,24.430715],[118.334226,24.430524],[118.333937,24.430639],[118.333363,24.430628],[118.332422,24.430755],[118.331368,24.431262],[118.330752,24.432039],[118.33046,24.432153],[118.330461,24.432328]]]]}},{"type":"Feature","properties":{"n":"慈湖路二段","v":"金寧鄉","w":2.35,"c":2.35,"r":4},"geometry":{"type":"MultiPolygon","coordinates":[[[[118.305873,24.454616],[118.307789,24.452302],[118.307911,24.452113],[118.30782,24.452076],[118.306829,24.453323],[118.305802,24.454558],[118.305829,24.454619],[118.305873,24.454616]]]]}},{"type":"Feature","properties":{"n":"慈湖路二段","v":"金寧鄉","w":2.35,"c":2.35,"r":34},"geometry":{"type":"MultiPolygon","coordinates":[[[[118.307934,24.452063],[118.308121,24.451064],[118.308285,24.450709],[118.310594,24.447623],[118.311425,24.446539],[118.311528,24.44413],[118.311345,24.444151],[118.311268,24.44656],[118.309363,24.449057],[118.307992,24.451014],[118.307788,24.452061],[118.307934,24.452063]]]]}},{"type":"Feature","properties":{"n":"八青路","v":"烈嶼鄉","w":2.5,"c":1.26,"r":4},"geometry":{"type":"MultiPolygon","coordinates":[[[[118.245544,24.42987],[118.243812,24.428694],[118.243697,24.428859],[118.245526,24.429974],[118.245544,24.42987]]]]}},{"type":"Feature","properties":{"n":"湖埔路","v":"烈嶼鄉","w":12,"c":1.15,"r":4},"geometry":{"type":"MultiPolygon","coordinates":[[[[118.263213,24.437353],[118.261308,24.439872],[118.260741,24.440745],[118.26087,24.440823],[118.261462,24.439952],[118.263341,24.437503],[118.263213,24.437353]]]]}},{"type":"Feature","properties":{"n":"九井路","v":"烈嶼鄉","w":2.1,"c":1.5,"r":4},"geometry":{"type":"MultiPolygon","coordinates":[[[[118.245895,24.429793],[118.247917,24.427921],[118.247789,24.427824],[118.245792,24.429721],[118.245895,24.429793]]]]}},{"type":"Feature","properties":{"n":"九井路","v":"烈嶼鄉","w":3.5,"c":2.1,"r":2},"geometry":{"type":"MultiPolygon","coordinates":[[[[118.239624,24.434584],[118.24274,24.432804],[118.243165,24.432406],[118.242958,24.432331],[118.24248,24.432752],[118.239497,24.43444],[118.239624,24.434584]]]]}},{"type":"Feature","properties":{"n":"太湖路一段","v":"金湖鎮","w":1.6,"c":1,"r":4},"geometry":{"type":"MultiPolygon","coordinates":[[[[118.411265,24.442038],[118.41295,24.440787],[118.412906,24.440744],[118.411208,24.441992],[118.411265,24.442038]]]]}},{"type":"Feature","properties":{"n":"太湖北側環湖道路","v":"金湖鎮","w":1.6,"c":1.6,"r":null},"geometry":{"type":"MultiPolygon","coordinates":[[[[118.424594,24.442464],[118.424649,24.442558],[118.429556,24.441723],[118.430091,24.441039],[118.429962,24.440954],[118.429467,24.441614],[118.424594,24.442464]]]]}},{"type":"Feature","properties":{"n":"桃園路","v":"金寧鄉","w":2,"c":2,"r":10},"geometry":{"type":"MultiPolygon","coordinates":[[[[118.334666,24.430558],[118.336657,24.430178],[118.338136,24.429906],[118.341008,24.42973],[118.340828,24.429619],[118.338139,24.429775],[118.334633,24.430429],[118.334666,24.430558]]]]}},{"type":"Feature","properties":{"n":"金鼎國小至環北一段","v":"金寧鄉","w":1.2,"c":1.2,"r":null},"geometry":{"type":"MultiPolygon","coordinates":[[[[118.33783,24.447179],[118.337794,24.44716],[118.336093,24.449402],[118.336126,24.449413],[118.33783,24.447179]]]]}},{"type":"Feature","properties":{"n":"頂林路至中堡","v":"金寧鄉","w":1,"c":1,"r":10},"geometry":{"type":"MultiPolygon","coordinates":[[[[118.333175,24.453715],[118.333049,24.453828],[118.333872,24.454392],[118.338774,24.459373],[118.33888,24.459301],[118.334056,24.454299],[118.333175,24.453715]]]]}},{"type":"Feature","properties":{"n":"環島南路三段(尚義段)","v":"金湖鎮","w":1.5,"c":1.5,"r":null},"geometry":{"type":"MultiPolygon","coordinates":[[[[118.380037,24.437469],[118.387446,24.435982],[118.387344,24.435885],[118.380007,24.437334],[118.380037,24.437469]]]]}},{"type":"Feature","properties":{"n":"環島西路二段","v":"金寧鄉","w":1,"c":1,"r":6},"geometry":{"type":"MultiPolygon","coordinates":[[[[118.31813,24.448319],[118.320469,24.441504],[118.320362,24.441465],[118.318023,24.448292],[118.31813,24.448319]]]]}},{"type":"Feature","properties":{"n":"后湖風景區聯外道路","v":"金寧鄉","w":2,"c":2,"r":12},"geometry":{"type":"MultiPolygon","coordinates":[[[[118.344422,24.416263],[118.333956,24.405635],[118.333621,24.406047],[118.344087,24.416675],[118.344218,24.416678],[118.344422,24.416263]]]]}},{"type":"Feature","properties":{"n":"環島南路四段","v":"金湖鎮","w":1.6,"c":1.6,"r":2},"geometry":{"type":"MultiPolygon","coordinates":[[[[118.391738,24.44055],[118.391789,24.440634],[118.3927,24.440053],[118.393281,24.439741],[118.393244,24.439621],[118.392862,24.439817],[118.391738,24.44055]]]]}},{"type":"Feature","properties":{"n":"國順街","v":"金湖鎮","w":1.5,"c":1.5,"r":7},"geometry":{"type":"MultiPolygon","coordinates":[[[[118.41657,24.438366],[118.416583,24.438378],[118.416608,24.438439],[118.419786,24.437323],[118.419748,24.437239],[118.41657,24.438366]]]]}},{"type":"Feature","properties":{"n":"國順街","v":"金湖鎮","w":1.5,"c":1.5,"r":3},"geometry":{"type":"MultiPolygon","coordinates":[[[[118.416529,24.438285],[118.41968,24.437181],[118.419604,24.437096],[118.416491,24.438201],[118.416527,24.438285],[118.416529,24.438285]]]]}},{"type":"Feature","properties":{"n":"環島北路一段","v":"金城鎮","w":1.5,"c":1.5,"r":29},"geometry":{"type":"MultiPolygon","coordinates":[[[[118.320676,24.439525],[118.320969,24.43981],[118.321095,24.439896],[118.321219,24.439969],[118.321415,24.44012],[118.321933,24.440559],[118.326951,24.444926],[118.327018,24.444844],[118.325008,24.443101],[118.323485,24.44175],[118.321928,24.440457],[118.321249,24.439902],[118.321006,24.439779],[118.320708,24.439503],[118.320679,24.439522],[118.320676,24.439525]]]]}},{"type":"Feature","properties":{"n":"環島北路四段","v":"金沙鎮","w":2,"c":2,"r":5},"geometry":{"type":"MultiPolygon","coordinates":[[[[118.407291,24.487012],[118.410238,24.490229],[118.410281,24.490184],[118.407321,24.486984],[118.407308,24.487008],[118.407291,24.487012]]]]}},{"type":"Feature","properties":{"n":"東坑至湖下","v":"金寧鄉","w":1.2,"c":1.2,"r":8},"geometry":{"type":"MultiPolygon","coordinates":[[[[118.315663,24.453865],[118.310616,24.453274],[118.308982,24.455298],[118.309214,24.455445],[118.310689,24.453538],[118.315633,24.454032],[118.315662,24.453883],[118.315663,24.453865]]]]}},{"type":"Feature","properties":{"n":"太湖路一段","v":"金湖鎮","w":1.5,"c":1.5,"r":8},"geometry":{"type":"MultiPolygon","coordinates":[[[[118.40929,24.443664],[118.4112,24.442097],[118.411136,24.442048],[118.409239,24.443603],[118.409297,24.443658],[118.40929,24.443664]]]]}},{"type":"Feature","properties":{"n":"太湖路一段","v":"金湖鎮","w":1.2,"c":1.2,"r":null},"geometry":{"type":"MultiPolygon","coordinates":[[[[118.40719,24.44532],[118.409244,24.443702],[118.40918,24.443635],[118.407157,24.445277],[118.407193,24.445318],[118.40719,24.44532]]]]}},{"type":"Feature","properties":{"n":"太湖路一段","v":"金湖鎮","w":1.5,"c":1.5,"r":4},"geometry":{"type":"MultiPolygon","coordinates":[[[[118.407159,24.445342],[118.407116,24.445291],[118.404893,24.447066],[118.403475,24.44806],[118.403545,24.448128],[118.404939,24.447108],[118.407159,24.445342]]]]}},{"type":"Feature","properties":{"n":"太湖路三段","v":"金湖鎮","w":1.2,"c":1.2,"r":4},"geometry":{"type":"MultiPolygon","coordinates":[[[[118.420914,24.438045],[118.422496,24.437499],[118.422458,24.437415],[118.420889,24.437995],[118.420914,24.438043],[118.420914,24.438045]]]]}},{"type":"Feature","properties":{"n":"黃海路","v":"金湖鎮","w":3.2,"c":1.8,"r":6},"geometry":{"type":"MultiPolygon","coordinates":[[[[118.414725,24.442807],[118.416736,24.445539],[118.416803,24.445493],[118.414756,24.442784],[118.414725,24.442807]]]]}},{"type":"Feature","properties":{"n":"光前路","v":"金城鎮","w":1,"c":1,"r":null},"geometry":{"type":"MultiPolygon","coordinates":[[[[118.313568,24.435087],[118.313598,24.435104],[118.314738,24.433407],[118.314706,24.433383],[118.313568,24.435087]]]]}},{"type":"Feature","properties":{"n":"金豐路(原1-1道路)","v":"金城鎮","w":6,"c":3.5,"r":4},"geometry":{"type":"MultiPolygon","coordinates":[[[[118.305379,24.415224],[118.305329,24.415163],[118.301166,24.41781],[118.301243,24.417883],[118.305379,24.415224]]]]}},{"type":"Feature","properties":{"n":"金豐路(原1-1道路)","v":"金城鎮","w":6,"c":3.5,"r":4},"geometry":{"type":"MultiPolygon","coordinates":[[[[118.305219,24.415107],[118.305145,24.415054],[118.301004,24.41763],[118.301081,24.417691],[118.305219,24.415107]]]]}},{"type":"Feature","properties":{"n":"環島北路一段","v":"金寧鄉","w":1.5,"c":1.5,"r":40},"geometry":{"type":"MultiPolygon","coordinates":[[[[118.326969,24.444943],[118.33059,24.448093],[118.331128,24.448382],[118.332662,24.448724],[118.337507,24.449612],[118.337523,24.449544],[118.331157,24.448322],[118.330637,24.448041],[118.327037,24.444864],[118.326969,24.444943]]]]}},{"type":"Feature","properties":{"n":"高陽路","v":"金沙鎮","w":2.5,"c":0.9,"r":29},"geometry":{"type":"MultiPolygon","coordinates":[[[[118.402412,24.470657],[118.425774,24.479249],[118.425817,24.479176],[118.402454,24.470563],[118.402412,24.470657]]]]}},{"type":"Feature","properties":{"n":"高陽路","v":"金沙鎮","w":2.5,"c":0.9,"r":33},"geometry":{"type":"MultiPolygon","coordinates":[[[[118.402285,24.470848],[118.425712,24.479443],[118.425747,24.479365],[118.402334,24.470757],[118.402285,24.470848]]]]}},{"type":"Feature","properties":{"n":"石鼓山至烈女廟道路","v":"烈嶼鄉","w":1.5,"c":1.5,"r":4},"geometry":{"type":"MultiPolygon","coordinates":[[[[118.223129,24.417383],[118.2231,24.417446],[118.223744,24.417568],[118.223931,24.417637],[118.224674,24.417979],[118.225685,24.417935],[118.225867,24.417849],[118.225924,24.417798],[118.226284,24.417121],[118.226397,24.416969],[118.226552,24.416832],[118.227346,24.416598],[118.227448,24.416573],[118.227437,24.416505],[118.227362,24.416515],[118.226517,24.416768],[118.226362,24.416871],[118.226249,24.41702],[118.226054,24.41744],[118.225881,24.417762],[118.225836,24.417808],[118.22568,24.417889],[118.225522,24.417884],[118.224929,24.417913],[118.224688,24.417913],[118.224541,24.417857],[118.223951,24.417566],[118.223768,24.417508],[118.223504,24.417442],[118.223129,24.417383]]]]}},{"type":"Feature","properties":{"n":"卓環國小前A段道路","v":"烈嶼鄉","w":2,"c":2,"r":2},"geometry":{"type":"MultiPolygon","coordinates":[[[[118.245947,24.430042],[118.246032,24.430111],[118.246282,24.430269],[118.246395,24.430333],[118.246472,24.430367],[118.246555,24.430367],[118.246582,24.430352],[118.246566,24.430331],[118.246545,24.43034],[118.246475,24.430335],[118.246389,24.430299],[118.246207,24.430184],[118.245968,24.430023],[118.245947,24.430042]]]]}},{"type":"Feature","properties":{"n":"卓環國小前A段道路","v":"烈嶼鄉","w":1.5,"c":1.5,"r":1},"geometry":{"type":"MultiPolygon","coordinates":[[[[118.246134,24.430255],[118.246116,24.430277],[118.246223,24.43034],[118.24626,24.430394],[118.246268,24.430431],[118.246293,24.430426],[118.246287,24.430392],[118.246244,24.430321],[118.246134,24.430255]]]]}},{"type":"Feature","properties":{"n":"卓環國小前B段道路","v":"烈嶼鄉","w":1.5,"c":1.5,"r":2},"geometry":{"type":"MultiPolygon","coordinates":[[[[118.246296,24.430436],[118.24627,24.430441],[118.246264,24.430465],[118.246246,24.43048],[118.245473,24.430934],[118.245505,24.430973],[118.246275,24.430495],[118.246291,24.430478],[118.246296,24.430436]]]]}},{"type":"Feature","properties":{"n":"卓環國小前B段道路","v":"烈嶼鄉","w":1.5,"c":1.5,"r":5},"geometry":{"type":"MultiPolygon","coordinates":[[[[118.246323,24.430534],[118.245476,24.431061],[118.245503,24.431096],[118.246339,24.430558],[118.246334,24.430558],[118.246323,24.430534]]]]}},{"type":"Feature","properties":{"n":"卓環國小前C段道路","v":"烈嶼鄉","w":1.5,"c":1.5,"r":3},"geometry":{"type":"MultiPolygon","coordinates":[[[[118.246364,24.430575],[118.246324,24.430587],[118.246329,24.431281],[118.246378,24.431286],[118.246364,24.430575]]]]}},{"type":"Feature","properties":{"n":"卓環國小前C段道路","v":"烈嶼鄉","w":2,"c":2,"r":2},"geometry":{"type":"MultiPolygon","coordinates":[[[[118.246428,24.430592],[118.246453,24.43059],[118.24645,24.430519],[118.246463,24.430489],[118.246474,24.43048],[118.246469,24.430458],[118.246445,24.430465],[118.246428,24.430497],[118.246428,24.430592]]]]}},{"type":"Feature","properties":{"n":"庵下至麒麟山","v":"烈嶼鄉","w":1.5,"c":1.5,"r":2},"geometry":{"type":"MultiPolygon","coordinates":[[[[118.250912,24.439168],[118.250955,24.439188],[118.251362,24.438612],[118.251325,24.438582],[118.250912,24.439168]]]]}},{"type":"Feature","properties":{"n":"珠水路","v":"金城鎮","w":1.5,"c":1.5,"r":4},"geometry":{"type":"MultiPolygon","coordinates":[[[[118.306358,24.404257],[118.306412,24.404291],[118.307281,24.402884],[118.307233,24.40285],[118.306358,24.404257]]]]}},{"type":"Feature","properties":{"n":"珠水路","v":"金城鎮","w":0.9,"c":0.9,"r":null},"geometry":{"type":"MultiPolygon","coordinates":[[[[118.306299,24.404134],[118.307179,24.40276],[118.307114,24.402721],[118.30625,24.404089],[118.306299,24.404134]]]]}},{"type":"Feature","properties":{"n":"珠水路","v":"金城鎮","w":0.9,"c":0.9,"r":null},"geometry":{"type":"MultiPolygon","coordinates":[[[[118.30736,24.4027],[118.307414,24.402741],[118.308642,24.401315],[118.308889,24.400973],[118.30927,24.400308],[118.309211,24.400284],[118.308857,24.400919],[118.308621,24.401241],[118.30736,24.4027]]]]}},{"type":"Feature","properties":{"n":"珠水路","v":"金城鎮","w":0.9,"c":0.9,"r":null},"geometry":{"type":"MultiPolygon","coordinates":[[[[118.307258,24.402607],[118.308331,24.401428],[118.308685,24.400998],[118.308857,24.400715],[118.309098,24.400235],[118.309044,24.400211],[118.308631,24.400963],[118.308229,24.401452],[118.307209,24.402556],[118.307258,24.402607]]]]}},{"type":"Feature","properties":{"n":"民權路","v":"金城鎮","w":1,"c":1,"r":null},"geometry":{"type":"MultiPolygon","coordinates":[[[[118.314723,24.433463],[118.316005,24.43475],[118.316029,24.434723],[118.31475,24.433431],[118.314723,24.433463]]]]}},{"type":"Feature","properties":{"n":"民生路45巷","v":"金城鎮","w":0.9,"c":0.9,"r":null},"geometry":{"type":"MultiPolygon","coordinates":[[[[118.318887,24.435634],[118.318914,24.435582],[118.318504,24.43517],[118.31805,24.434698],[118.318013,24.434722],[118.318517,24.435245],[118.318887,24.435634]]]]}},{"type":"Feature","properties":{"n":"自強路","v":"金湖鎮","w":0.9,"c":0.9,"r":null},"geometry":{"type":"MultiPolygon","coordinates":[[[[118.416243,24.441825],[118.416439,24.442047],[118.416635,24.442228],[118.416657,24.442209],[118.416466,24.44203],[118.416265,24.44181],[118.416243,24.441825]]]]}},{"type":"Feature","properties":{"n":"士校路","v":"金湖鎮","w":1.5,"c":1.5,"r":2},"geometry":{"type":"MultiPolygon","coordinates":[[[[118.419913,24.43709],[118.420766,24.438077],[118.42082,24.438033],[118.419977,24.437046],[118.419913,24.43709]]]]}},{"type":"Feature","properties":{"n":"民族路","v":"金城鎮","w":1.4,"c":1.4,"r":2},"geometry":{"type":"MultiPolygon","coordinates":[[[[118.313501,24.431324],[118.312339,24.431344],[118.312339,24.431402],[118.313501,24.431368],[118.313501,24.431324]]]]}},{"type":"Feature","properties":{"n":"民族路","v":"金城鎮","w":0.9,"c":0.9,"r":null},"geometry":{"type":"MultiPolygon","coordinates":[[[[118.315729,24.430184],[118.315731,24.430233],[118.317906,24.430115],[118.319947,24.43054],[118.321281,24.430972],[118.321289,24.430906],[118.319952,24.430498],[118.317916,24.430076],[118.316302,24.430162],[118.315729,24.430184]]]]}},{"type":"Feature","properties":{"n":"民權路","v":"金城鎮","w":3,"c":3,"r":6},"geometry":{"type":"MultiPolygon","coordinates":[[[[118.314634,24.433321],[118.314623,24.433272],[118.314387,24.432969],[118.31428,24.432871],[118.314012,24.43252],[118.313915,24.432334],[118.313862,24.432129],[118.313787,24.431924],[118.313701,24.43165],[118.313583,24.431309],[118.31354,24.431328],[118.313658,24.43166],[118.313872,24.432344],[118.313969,24.432539],[118.314194,24.432823],[118.314387,24.433028],[118.314634,24.433321]]]]}},{"type":"Feature","properties":{"n":"民族路","v":"金城鎮","w":3,"c":3,"r":2},"geometry":{"type":"MultiPolygon","coordinates":[[[[118.312279,24.43125],[118.312284,24.431255],[118.31229,24.431216],[118.311453,24.431182],[118.310788,24.431162],[118.31038,24.431143],[118.310385,24.431186],[118.310455,24.431191],[118.31067,24.431191],[118.311249,24.431221],[118.311373,24.43124],[118.312279,24.43125]]]]}}]}