{"type":"FeatureCollection","features":[{"type":"Feature","properties":{"n":"興安路一段","v":"台東市","w":5,"c":5,"r":2},"geometry":{"type":"MultiPolygon","coordinates":[[[[121.127895,22.785271],[121.127233,22.793573],[121.12724,22.79357],[121.127895,22.785271]]]]}},{"type":"Feature","properties":{"n":"光復路","v":"台東市","w":2.2,"c":1.2,"r":null},"geometry":{"type":"MultiPolygon","coordinates":[[[[121.156076,22.749869],[121.156069,22.74986],[121.155216,22.749562],[121.153911,22.749305],[121.152844,22.749103],[121.152406,22.749045],[121.15187,22.74903],[121.151581,22.749055],[121.151007,22.749155],[121.150999,22.74917],[121.151575,22.74906],[121.151874,22.749033],[121.152358,22.74905],[121.152394,22.74906],[121.152805,22.749111],[121.155213,22.749578],[121.155241,22.749591],[121.156076,22.749869]]]]}},{"type":"Feature","properties":{"n":"光復路","v":"台東市","w":2,"c":1,"r":null},"geometry":{"type":"MultiPolygon","coordinates":[[[[121.156095,22.749889],[121.155225,22.749607],[121.153915,22.749324],[121.15282,22.749133],[121.152346,22.749077],[121.151881,22.749047],[121.151594,22.749066],[121.150965,22.749191],[121.15159,22.749069],[121.151874,22.749051],[121.15234,22.749081],[121.152822,22.749136],[121.153917,22.749326],[121.153953,22.749343],[121.155185,22.749602],[121.156102,22.749902],[121.156099,22.749891],[121.156095,22.749889]]]]}},{"type":"Feature","properties":{"n":"興安路一段","v":"台東市","w":5,"c":5,"r":2},"geometry":{"type":"MultiPolygon","coordinates":[[[[121.128433,22.785244],[121.128267,22.78525],[121.128174,22.785281],[121.12807,22.785358],[121.127978,22.785461],[121.127892,22.785677],[121.127275,22.793551],[121.127291,22.793545],[121.127906,22.78567],[121.127977,22.785502],[121.128086,22.785365],[121.128202,22.785287],[121.128421,22.785251],[121.128433,22.785244]]]]}},{"type":"Feature","properties":{"n":"正氣路","v":"台東市","w":1.2,"c":1.2,"r":2},"geometry":{"type":"MultiPolygon","coordinates":[[[[121.14303,22.75716],[121.143927,22.757186],[121.143924,22.757176],[121.143046,22.757151],[121.14303,22.75716]]]]}},{"type":"Feature","properties":{"n":"更生路","v":"台東市","w":3.5,"c":2.5,"r":36},"geometry":{"type":"MultiPolygon","coordinates":[[[[121.133602,22.770768],[121.139959,22.764299],[121.143898,22.761404],[121.14731,22.75937],[121.147284,22.759334],[121.143886,22.761368],[121.139818,22.764359],[121.13355,22.770744],[121.133602,22.770768]]]]}},{"type":"Feature","properties":{"n":"鐵花路","v":"台東市","w":1,"c":1,"r":null},"geometry":{"type":"MultiPolygon","coordinates":[[[[121.145395,22.753754],[121.149344,22.750503],[121.149324,22.750491],[121.145379,22.753749],[121.145395,22.753754]]]]}},{"type":"Feature","properties":{"n":"大同路","v":"台東市","w":0,"c":1.5,"r":0},"geometry":{"type":"MultiPolygon","coordinates":[[[[121.152682,22.753734],[121.152661,22.753761],[121.152697,22.753758],[121.153277,22.753249],[121.154036,22.752655],[121.155742,22.751222],[121.156602,22.750476],[121.156581,22.750456],[121.155732,22.751203],[121.154018,22.752637],[121.153268,22.75322],[121.152682,22.753734]]]]}},{"type":"Feature","properties":{"n":"臨海路一段","v":"台東市","w":0,"c":1.5,"r":0},"geometry":{"type":"MultiPolygon","coordinates":[[[[121.156526,22.750415],[121.156049,22.749872],[121.155468,22.749186],[121.153482,22.747001],[121.151199,22.744524],[121.150948,22.744226],[121.149981,22.743474],[121.14413,22.740528],[121.139001,22.737898],[121.138973,22.737915],[121.14411,22.740554],[121.145223,22.741105],[121.149958,22.743492],[121.150938,22.744263],[121.151196,22.744561],[121.153066,22.746595],[121.155441,22.749205],[121.156502,22.750446],[121.156526,22.750415]]]]}},{"type":"Feature","properties":{"n":"桂林北路","v":"台東市","w":1.5,"c":1.5,"r":0},"geometry":{"type":"MultiPolygon","coordinates":[[[[121.144637,22.753542],[121.144655,22.753547],[121.14464,22.753227],[121.144533,22.752364],[121.144362,22.751043],[121.143931,22.748398],[121.143928,22.748107],[121.144141,22.747315],[121.144118,22.747301],[121.143905,22.748107],[121.143913,22.748393],[121.144105,22.74961],[121.144354,22.751122],[121.144614,22.75321],[121.144637,22.753542]]]]}},{"type":"Feature","properties":{"n":"中華路一段719項","v":"台東市","w":0,"c":2.5,"r":3},"geometry":{"type":"MultiPolygon","coordinates":[[[[121.146585,22.748403],[121.146625,22.748425],[121.148549,22.74685],[121.148529,22.746839],[121.146585,22.748403]]]]}},{"type":"Feature","properties":{"n":"中華路一段719巷","v":"台東市","w":0,"c":2.5,"r":4},"geometry":{"type":"MultiPolygon","coordinates":[[[[121.148538,22.746821],[121.148561,22.746843],[121.150623,22.74505],[121.150565,22.745004],[121.148538,22.746821]]]]}},{"type":"Feature","properties":{"n":"中山路","v":"台東市","w":0,"c":2,"r":26},"geometry":{"type":"MultiPolygon","coordinates":[[[[121.148019,22.752729],[121.147998,22.752744],[121.157813,22.76264],[121.15783,22.762623],[121.148019,22.752729]]]]}},{"type":"Feature","properties":{"n":"中華路一段","v":"台東市","w":0,"c":2,"r":8},"geometry":{"type":"MultiPolygon","coordinates":[[[[121.149327,22.750488],[121.14901,22.750161],[121.148966,22.750102],[121.148605,22.749749],[121.147908,22.749157],[121.146601,22.748453],[121.145267,22.747832],[121.145254,22.747849],[121.1466,22.748467],[121.1479,22.749167],[121.148587,22.749756],[121.148949,22.750106],[121.148998,22.750171],[121.149315,22.750498],[121.14932,22.750498],[121.149327,22.750488]]]]}},{"type":"Feature","properties":{"n":"南島大道","v":"台東市","w":0,"c":2.5,"r":22},"geometry":{"type":"MultiPolygon","coordinates":[[[[121.120728,22.767296],[121.120151,22.767435],[121.119839,22.76745],[121.119342,22.767381],[121.117877,22.766856],[121.117078,22.766582],[121.116606,22.766563],[121.113472,22.767134],[121.108202,22.768047],[121.101734,22.767956],[121.101026,22.768172],[121.099364,22.768519],[121.099376,22.76854],[121.101026,22.768204],[121.101747,22.767983],[121.108214,22.768074],[121.113502,22.767163],[121.116606,22.766593],[121.117064,22.766605],[121.119319,22.767397],[121.119829,22.767463],[121.120144,22.767451],[121.120731,22.767314],[121.120731,22.767293],[121.120728,22.767296]]]]}},{"type":"Feature","properties":{"n":"南島大道","v":"台東市","w":0,"c":2.5,"r":20},"geometry":{"type":"MultiPolygon","coordinates":[[[[121.099305,22.768501],[121.09932,22.768497],[121.098892,22.768103],[121.098632,22.767792],[121.0985,22.767505],[121.098475,22.767161],[121.098787,22.765106],[121.098858,22.763257],[121.097989,22.758327],[121.097973,22.758329],[121.098848,22.763261],[121.098773,22.765098],[121.098461,22.767163],[121.09849,22.767509],[121.098622,22.767796],[121.098877,22.768105],[121.099305,22.768501]]]]}},{"type":"Feature","properties":{"n":"博物館路","v":"台東市","w":0,"c":2,"r":18},"geometry":{"type":"MultiPolygon","coordinates":[[[[121.095819,22.76461],[121.095824,22.764512],[121.095801,22.764328],[121.095714,22.763972],[121.095665,22.763843],[121.095447,22.763442],[121.09373,22.760758],[121.093137,22.759837],[121.092265,22.758421],[121.088567,22.761023],[121.088577,22.76103],[121.092259,22.758438],[121.0937,22.760758],[121.095061,22.762884],[121.095445,22.763454],[121.095652,22.763842],[121.095703,22.763976],[121.095788,22.76432],[121.095812,22.764505],[121.095809,22.76461],[121.095819,22.76461]]]]}},{"type":"Feature","properties":{"n":"民航路","v":"台東市","w":6,"c":3,"r":50},"geometry":{"type":"MultiPolygon","coordinates":[[[[121.126888,22.776952],[121.12681,22.776463],[121.12583,22.775364],[121.124401,22.773896],[121.123435,22.772965],[121.122478,22.77201],[121.122323,22.771783],[121.121393,22.769932],[121.120968,22.769012],[121.120145,22.760173],[121.117691,22.753516],[121.113155,22.753243],[121.108816,22.755253],[121.10886,22.755372],[121.113161,22.753362],[121.117592,22.753646],[121.120033,22.760191],[121.120839,22.76896],[121.122156,22.77179],[121.122517,22.77222],[121.123187,22.772864],[121.125508,22.77518],[121.126695,22.776494],[121.126824,22.777025],[121.12685,22.77702],[121.126879,22.776971],[121.126888,22.776952]]]]}},{"type":"Feature","properties":{"n":"更生北路","v":"台東市","w":5,"c":2.5,"r":27},"geometry":{"type":"MultiPolygon","coordinates":[[[[121.126878,22.777021],[121.126871,22.777001],[121.125544,22.778241],[121.123922,22.779713],[121.123018,22.780357],[121.122702,22.780572],[121.121504,22.781366],[121.121048,22.781703],[121.120456,22.78206],[121.119251,22.782915],[121.117837,22.783891],[121.117371,22.784224],[121.116812,22.784654],[121.115995,22.785219],[121.114257,22.786521],[121.113515,22.787019],[121.112998,22.787438],[121.110713,22.7891],[121.107296,22.791608],[121.105853,22.792653],[121.105866,22.792668],[121.113016,22.787442],[121.113538,22.787025],[121.113714,22.786912],[121.114264,22.786535],[121.116068,22.785189],[121.116827,22.784664],[121.117378,22.78424],[121.118535,22.783425],[121.119352,22.782868],[121.120461,22.78208],[121.121061,22.781713],[121.121543,22.781361],[121.123024,22.780381],[121.123938,22.779722],[121.12444,22.77928],[121.125822,22.778017],[121.126878,22.777021]]]]}},{"type":"Feature","properties":{"n":"新生路","v":"台東市","w":2,"c":2.5,"r":20},"geometry":{"type":"MultiPolygon","coordinates":[[[[121.148015,22.752686],[121.148685,22.752102],[121.149464,22.751468],[121.149921,22.751073],[121.150532,22.750595],[121.150983,22.75023],[121.151375,22.749943],[121.152173,22.749219],[121.152308,22.749088],[121.152289,22.749076],[121.152147,22.749207],[121.151343,22.749925],[121.150963,22.750206],[121.150506,22.750571],[121.149895,22.751049],[121.149419,22.751468],[121.148647,22.752096],[121.147999,22.752664],[121.148015,22.752686]]]]}},{"type":"Feature","properties":{"n":"馬亨亨大道","v":"台東市","w":8,"c":4,"r":57},"geometry":{"type":"MultiPolygon","coordinates":[[[[121.162131,22.756185],[121.162132,22.75618],[121.162106,22.75615],[121.161039,22.757196],[121.160628,22.757961],[121.159715,22.759997],[121.159194,22.760601],[121.158461,22.761546],[121.157806,22.762651],[121.156892,22.76347],[121.155437,22.76427],[121.15413,22.765131],[121.152533,22.765956],[121.149288,22.767434],[121.148806,22.767745],[121.148413,22.768164],[121.147538,22.769067],[121.146561,22.770111],[121.14593,22.770691],[121.144958,22.771624],[121.143974,22.772609],[121.142404,22.774874],[121.141728,22.775482],[121.140763,22.776014],[121.138026,22.777498],[121.13619,22.778533],[121.130814,22.781578],[121.129829,22.782487],[121.128645,22.784089],[121.127961,22.784716],[121.127985,22.78474],[121.12868,22.784113],[121.129884,22.782487],[121.130835,22.781621],[121.132406,22.780693],[121.133784,22.779939],[121.138068,22.777535],[121.141772,22.775495],[121.142443,22.774896],[121.142617,22.774681],[121.143163,22.773886],[121.144027,22.772607],[121.144746,22.771877],[121.14662,22.770116],[121.148851,22.767781],[121.149307,22.767471],[121.152547,22.765998],[121.154169,22.765161],[121.155497,22.764293],[121.156171,22.763946],[121.156946,22.763506],[121.157233,22.763277],[121.157873,22.762632],[121.158511,22.761574],[121.159239,22.760615],[121.159773,22.760011],[121.160661,22.758015],[121.161104,22.757214],[121.162131,22.756185]]]]}},{"type":"Feature","properties":{"n":"博愛路","v":"台東市","w":2,"c":2,"r":8},"geometry":{"type":"MultiPolygon","coordinates":[[[[121.147473,22.755954],[121.145439,22.753766],[121.145403,22.753796],[121.147438,22.755977],[121.147473,22.755954]]]]}},{"type":"Feature","properties":{"n":"太平路","v":"成功鎮","w":5,"c":2.5,"r":null},"geometry":{"type":"MultiPolygon","coordinates":[[[[121.380757,23.105975],[121.380815,23.106038],[121.381259,23.105002],[121.381706,23.104],[121.381631,23.103969],[121.381155,23.10505],[121.380757,23.105975]]]]}},{"type":"Feature","properties":{"n":"太平路","v":"成功鎮","w":5,"c":2.5,"r":null},"geometry":{"type":"MultiPolygon","coordinates":[[[[121.381634,23.103956],[121.381712,23.103987],[121.382064,23.103219],[121.381981,23.103191],[121.381634,23.103956]]]]}},{"type":"Feature","properties":{"n":"太平路","v":"成功鎮","w":5,"c":2.5,"r":null},"geometry":{"type":"MultiPolygon","coordinates":[[[[121.381987,23.103166],[121.382067,23.103195],[121.382226,23.10285],[121.382149,23.102817],[121.381987,23.103166]]]]}},{"type":"Feature","properties":{"n":"太平路","v":"成功鎮","w":5,"c":2.5,"r":null},"geometry":{"type":"MultiPolygon","coordinates":[[[[121.382157,23.102789],[121.382232,23.102825],[121.382532,23.102074],[121.382842,23.101346],[121.38277,23.101299],[121.382485,23.10199],[121.382311,23.102432],[121.382157,23.102789]]]]}},{"type":"Feature","properties":{"n":"太平路","v":"成功鎮","w":5,"c":2.5,"r":null},"geometry":{"type":"MultiPolygon","coordinates":[[[[121.382797,23.101225],[121.382862,23.101272],[121.383126,23.100722],[121.383048,23.100694],[121.382797,23.101225]]]]}},{"type":"Feature","properties":{"n":"太平路","v":"成功鎮","w":5,"c":2.5,"r":null},"geometry":{"type":"MultiPolygon","coordinates":[[[[121.383056,23.100665],[121.383131,23.100691],[121.383375,23.100153],[121.383305,23.100129],[121.383056,23.100665]]]]}},{"type":"Feature","properties":{"n":"太平路","v":"成功鎮","w":5,"c":2.5,"r":null},"geometry":{"type":"MultiPolygon","coordinates":[[[[121.380733,23.105951],[121.381082,23.105136],[121.381421,23.104373],[121.381456,23.104272],[121.381376,23.104239],[121.381338,23.104356],[121.380673,23.105885],[121.380733,23.105951]]]]}},{"type":"Feature","properties":{"n":"太平路","v":"成功鎮","w":5,"c":2.5,"r":null},"geometry":{"type":"MultiPolygon","coordinates":[[[[121.38147,23.104252],[121.381791,23.103546],[121.381703,23.103513],[121.381388,23.104219],[121.38147,23.104252]]]]}},{"type":"Feature","properties":{"n":"太平路","v":"成功鎮","w":5,"c":2.5,"r":null},"geometry":{"type":"MultiPolygon","coordinates":[[[[121.381799,23.103526],[121.38212,23.102809],[121.382037,23.10277],[121.381719,23.103495],[121.381799,23.103526]]]]}},{"type":"Feature","properties":{"n":"太平路","v":"成功鎮","w":5,"c":2.5,"r":null},"geometry":{"type":"MultiPolygon","coordinates":[[[[121.382134,23.102782],[121.38228,23.102433],[121.382197,23.102402],[121.382056,23.102749],[121.382134,23.102782]]]]}},{"type":"Feature","properties":{"n":"太平路","v":"成功鎮","w":5,"c":2.5,"r":null},"geometry":{"type":"MultiPolygon","coordinates":[[[[121.382285,23.102418],[121.382431,23.102043],[121.382354,23.102014],[121.382205,23.102387],[121.382285,23.102418]]]]}},{"type":"Feature","properties":{"n":"太平路","v":"成功鎮","w":5,"c":2.5,"r":null},"geometry":{"type":"MultiPolygon","coordinates":[[[[121.382444,23.102019],[121.382595,23.101651],[121.382513,23.10162],[121.382364,23.101993],[121.382444,23.102019]]]]}},{"type":"Feature","properties":{"n":"太平路","v":"成功鎮","w":5,"c":2.5,"r":null},"geometry":{"type":"MultiPolygon","coordinates":[[[[121.382603,23.101634],[121.382747,23.101282],[121.382664,23.101251],[121.382523,23.101608],[121.382603,23.101634]]]]}},{"type":"Feature","properties":{"n":"東17線","v":"成功鎮","w":2,"c":2,"r":null},"geometry":{"type":"MultiPolygon","coordinates":[[[[121.385197,23.104743],[121.385255,23.104719],[121.384813,23.103907],[121.384631,23.103442],[121.384409,23.102397],[121.384357,23.10226],[121.384253,23.102087],[121.384188,23.101961],[121.383942,23.101753],[121.383916,23.101801],[121.384162,23.102015],[121.384279,23.10223],[121.384331,23.102349],[121.384396,23.102576],[121.38458,23.103466],[121.384775,23.103925],[121.385073,23.104474],[121.385203,23.104737],[121.385197,23.104743]]]]}},{"type":"Feature","properties":{"n":"中山東路","v":"成功鎮","w":3.5,"c":3,"r":null},"geometry":{"type":"MultiPolygon","coordinates":[[[[121.382773,23.101273],[121.382856,23.101328],[121.383443,23.101582],[121.383895,23.101813],[121.383919,23.10176],[121.383471,23.101535],[121.382869,23.10128],[121.382799,23.101228],[121.382773,23.101273]]]]}},{"type":"Feature","properties":{"n":"中山東路","v":"成功鎮","w":3.5,"c":3,"r":null},"geometry":{"type":"MultiPolygon","coordinates":[[[[121.381767,23.100917],[121.382749,23.101261],[121.382775,23.101211],[121.381787,23.100867],[121.381767,23.100917]]]]}},{"type":"Feature","properties":{"n":"中山東路","v":"成功鎮","w":3.5,"c":3,"r":null},"geometry":{"type":"MultiPolygon","coordinates":[[[[121.381744,23.100905],[121.381764,23.100857],[121.380844,23.100513],[121.380821,23.100566],[121.381744,23.100905]]]]}},{"type":"Feature","properties":{"n":"中山東路","v":"成功鎮","w":3.5,"c":3,"r":null},"geometry":{"type":"MultiPolygon","coordinates":[[[[121.378885,23.09984],[121.379842,23.100179],[121.380796,23.100555],[121.380819,23.100504],[121.379865,23.100134],[121.378906,23.099787],[121.378885,23.09984]]]]}},{"type":"Feature","properties":{"n":"中山東路","v":"成功鎮","w":3.5,"c":3,"r":null},"geometry":{"type":"MultiPolygon","coordinates":[[[[121.376319,23.098825],[121.376396,23.098889],[121.376942,23.09911],[121.377875,23.099478],[121.378871,23.099832],[121.378891,23.099781],[121.377896,23.099428],[121.376406,23.098843],[121.376339,23.098782],[121.376319,23.098825]]]]}},{"type":"Feature","properties":{"n":"光復路","v":"成功鎮","w":7,"c":3.5,"r":null},"geometry":{"type":"MultiPolygon","coordinates":[[[[121.380782,23.100486],[121.380818,23.1005],[121.380934,23.100256],[121.380895,23.100242],[121.380785,23.100483],[121.380782,23.100486]]]]}},{"type":"Feature","properties":{"n":"光復路","v":"成功鎮","w":7,"c":3.5,"r":null},"geometry":{"type":"MultiPolygon","coordinates":[[[[121.380846,23.100511],[121.38091,23.100537],[121.381033,23.100295],[121.380963,23.100269],[121.380846,23.100511]]]]}},{"type":"Feature","properties":{"n":"光復路","v":"成功鎮","w":7,"c":3.5,"r":null},"geometry":{"type":"MultiPolygon","coordinates":[[[[121.38097,23.100245],[121.381036,23.10027],[121.381161,23.100001],[121.381094,23.099974],[121.38097,23.100245]]]]}},{"type":"Feature","properties":{"n":"光復路","v":"成功鎮","w":7,"c":3.5,"r":null},"geometry":{"type":"MultiPolygon","coordinates":[[[[121.3811,23.099952],[121.381169,23.099978],[121.381256,23.099693],[121.381186,23.099667],[121.3811,23.099952]]]]}},{"type":"Feature","properties":{"n":"光復路","v":"成功鎮","w":7,"c":3.5,"r":null},"geometry":{"type":"MultiPolygon","coordinates":[[[[121.380906,23.100219],[121.380947,23.100233],[121.381062,23.099972],[121.381029,23.099956],[121.380908,23.100219],[121.380906,23.100219]]]]}},{"type":"Feature","properties":{"n":"光復路","v":"成功鎮","w":7,"c":3.5,"r":null},"geometry":{"type":"MultiPolygon","coordinates":[[[[121.380995,23.099913],[121.381066,23.099931],[121.381156,23.099662],[121.38154,23.098753],[121.38163,23.098514],[121.381591,23.098466],[121.380995,23.099907],[121.380995,23.099913]]]]}},{"type":"Feature","properties":{"n":"光復路","v":"成功鎮","w":7,"c":3.5,"r":null},"geometry":{"type":"MultiPolygon","coordinates":[[[[121.381186,23.099641],[121.381258,23.099669],[121.381378,23.099413],[121.381309,23.099384],[121.381186,23.099641]]]]}},{"type":"Feature","properties":{"n":"光復路","v":"成功鎮","w":7,"c":3.5,"r":null},"geometry":{"type":"MultiPolygon","coordinates":[[[[121.381384,23.099385],[121.381639,23.098779],[121.381688,23.098624],[121.381643,23.09854],[121.381597,23.09872],[121.381577,23.098775],[121.381326,23.099361],[121.381384,23.099385]]]]}},{"type":"Feature","properties":{"n":"五權路","v":"成功鎮","w":2,"c":2,"r":null},"geometry":{"type":"MultiPolygon","coordinates":[[[[121.382227,23.099621],[121.382308,23.099647],[121.381728,23.09846],[121.381661,23.098499],[121.382227,23.099621]]]]}},{"type":"Feature","properties":{"n":"五權路","v":"成功鎮","w":6,"c":3,"r":null},"geometry":{"type":"MultiPolygon","coordinates":[[[[121.381692,23.098625],[121.381665,23.098713],[121.382064,23.099511],[121.382123,23.099476],[121.381692,23.098625]]]]}},{"type":"Feature","properties":{"n":"太平路","v":"成功鎮","w":5,"c":2.5,"r":null},"geometry":{"type":"MultiPolygon","coordinates":[[[[121.382773,23.10121],[121.382881,23.100978],[121.382795,23.100947],[121.38269,23.101181],[121.382732,23.101198],[121.382773,23.10121]]]]}},{"type":"Feature","properties":{"n":"太平路","v":"成功鎮","w":5,"c":2.5,"r":null},"geometry":{"type":"MultiPolygon","coordinates":[[[[121.382891,23.100956],[121.383022,23.100679],[121.382937,23.100646],[121.382808,23.100925],[121.382891,23.100956]]]]}},{"type":"Feature","properties":{"n":"太平路","v":"成功鎮","w":5,"c":2.5,"r":null},"geometry":{"type":"MultiPolygon","coordinates":[[[[121.38303,23.100657],[121.383145,23.100399],[121.383055,23.100366],[121.382944,23.100626],[121.38303,23.100657]]]]}},{"type":"Feature","properties":{"n":"太平路","v":"成功鎮","w":5,"c":2.5,"r":null},"geometry":{"type":"MultiPolygon","coordinates":[[[[121.383153,23.10038],[121.383279,23.10011],[121.383204,23.100079],[121.383083,23.100351],[121.383153,23.10038]]]]}},{"type":"Feature","properties":{"n":"民豐街","v":"成功鎮","w":5,"c":2.5,"r":null},"geometry":{"type":"MultiPolygon","coordinates":[[[[121.383945,23.10175],[121.384006,23.101805],[121.384391,23.100882],[121.384271,23.100536],[121.384258,23.100426],[121.38418,23.100405],[121.384196,23.100532],[121.384308,23.100869],[121.383945,23.10175]]]]}},{"type":"Feature","properties":{"n":"民豐街","v":"成功鎮","w":5,"c":2.5,"r":null},"geometry":{"type":"MultiPolygon","coordinates":[[[[121.38419,23.101084],[121.384285,23.100866],[121.384183,23.10056],[121.384165,23.100489],[121.384157,23.100422],[121.3838,23.100294],[121.383772,23.100373],[121.384098,23.100489],[121.384108,23.100556],[121.38421,23.100864],[121.384123,23.101057],[121.384156,23.101072],[121.38419,23.101084]]]]}},{"type":"Feature","properties":{"n":"民富路","v":"成功鎮","w":5,"c":2.5,"r":null},"geometry":{"type":"MultiPolygon","coordinates":[[[[121.38416,23.100399],[121.38416,23.100321],[121.382229,23.09962],[121.382283,23.099725],[121.38416,23.100399]]]]}},{"type":"Feature","properties":{"n":"忠孝路","v":"池上鄉","w":2.8,"c":1.4,"r":28},"geometry":{"type":"MultiPolygon","coordinates":[[[[121.222409,23.125259],[121.222446,23.125238],[121.221153,23.124194],[121.220338,23.123645],[121.219523,23.12306],[121.218793,23.122486],[121.216297,23.120674],[121.216285,23.120716],[121.218785,23.122516],[121.21949,23.123075],[121.220307,23.12366],[121.22114,23.124226],[121.222409,23.125259]]]]}},{"type":"Feature","properties":{"n":"忠孝路","v":"池上鄉","w":2.8,"c":1.4,"r":28},"geometry":{"type":"MultiPolygon","coordinates":[[[[121.222409,23.125259],[121.222446,23.125238],[121.221153,23.124194],[121.220338,23.123645],[121.219523,23.12306],[121.218793,23.122486],[121.216297,23.120674],[121.216285,23.120716],[121.218785,23.122516],[121.21949,23.123075],[121.220307,23.12366],[121.22114,23.124226],[121.222409,23.125259]]]]}},{"type":"Feature","properties":{"n":"力學路","v":"池上鄉","w":1.4,"c":1.4,"r":5},"geometry":{"type":"MultiPolygon","coordinates":[[[[121.205883,23.114254],[121.205892,23.114237],[121.205866,23.114219],[121.205388,23.114471],[121.204016,23.115135],[121.204056,23.115164],[121.205883,23.114254]]]]}},{"type":"Feature","properties":{"n":"池富道路","v":"池上鄉","w":1.4,"c":1.4,"r":4},"geometry":{"type":"MultiPolygon","coordinates":[[[[121.21828,23.096198],[121.218029,23.095752],[121.218359,23.095111],[121.218655,23.09469],[121.218787,23.094556],[121.218771,23.094549],[121.218645,23.094681],[121.218346,23.095102],[121.218014,23.095754],[121.218273,23.096203],[121.21828,23.096198]]]]}},{"type":"Feature","properties":{"n":"三民路","v":"池上鄉","w":8,"c":8,"r":0},"geometry":{"type":"MultiPolygon","coordinates":[[[[121.218643,23.124113],[121.21866,23.124085],[121.217237,23.123053],[121.215834,23.121974],[121.214929,23.121229],[121.214901,23.121241],[121.215843,23.122016],[121.217213,23.123071],[121.218643,23.124113]]]]}},{"type":"Feature","properties":{"n":"中西三路","v":"池上鄉","w":2,"c":2,"r":4},"geometry":{"type":"MultiPolygon","coordinates":[[[[121.215677,23.12598],[121.216264,23.125279],[121.216232,23.125267],[121.215654,23.125961],[121.215677,23.12598]]]]}},{"type":"Feature","properties":{"n":"中華路","v":"池上鄉","w":1.5,"c":1.5,"r":null},"geometry":{"type":"MultiPolygon","coordinates":[[[[121.216231,23.125267],[121.216257,23.125243],[121.215966,23.125034],[121.214531,23.123979],[121.214511,23.123997],[121.215785,23.124933],[121.216231,23.125267]]]]}},{"type":"Feature","properties":{"n":"中西二路","v":"池上鄉","w":2,"c":2,"r":2},"geometry":{"type":"MultiPolygon","coordinates":[[[[121.213342,23.125439],[121.214522,23.123992],[121.214502,23.123968],[121.21331,23.125415],[121.213342,23.125439]]]]}},{"type":"Feature","properties":{"n":"人行道","v":"綠島鄉","w":1.25,"c":1.25,"r":null},"geometry":{"type":"MultiPolygon","coordinates":[[[[121.469948,22.67323],[121.470658,22.673732],[121.470697,22.673706],[121.469984,22.673208],[121.469948,22.67323]]]]}},{"type":"Feature","properties":{"n":"仁愛路","v":"關山鎮","w":0,"c":3,"r":2},"geometry":{"type":"MultiPolygon","coordinates":[[[[121.164633,23.049316],[121.164626,23.049274],[121.162903,23.049837],[121.16291,23.049885],[121.164645,23.049316],[121.164633,23.049316]]]]}},{"type":"Feature","properties":{"n":"和平路","v":"關山鎮","w":0,"c":3,"r":2},"geometry":{"type":"MultiPolygon","coordinates":[[[[121.164629,23.049286],[121.164591,23.049292],[121.165096,23.050588],[121.165128,23.050558],[121.164629,23.049286]]]]}},{"type":"Feature","properties":{"n":"仁愛路","v":"關山鎮","w":0,"c":3,"r":2},"geometry":{"type":"MultiPolygon","coordinates":[[[[121.162898,23.04988],[121.164601,23.049323],[121.164588,23.049287],[121.162891,23.049833],[121.162904,23.049833],[121.162898,23.04988]]]]}},{"type":"Feature","properties":{"n":"三民路","v":"關山鎮","w":0,"c":2,"r":2},"geometry":{"type":"MultiPolygon","coordinates":[[[[121.162895,23.049859],[121.163374,23.051113],[121.163432,23.051149],[121.162914,23.049811],[121.162908,23.049835],[121.162895,23.049859]]]]}},{"type":"Feature","properties":{"n":"博愛路","v":"關山鎮","w":0,"c":2,"r":0},"geometry":{"type":"MultiPolygon","coordinates":[[[[121.164265,23.04576],[121.164252,23.04576],[121.164265,23.045772],[121.165482,23.049032],[121.165495,23.048985],[121.164303,23.045748],[121.164291,23.045773],[121.164265,23.04576]]]]}},{"type":"Feature","properties":{"n":"博愛路","v":"關山鎮","w":0,"c":2,"r":0},"geometry":{"type":"MultiPolygon","coordinates":[[[[121.164079,23.045237],[121.163826,23.044604],[121.163801,23.044616],[121.164053,23.045243],[121.16404,23.045249],[121.164079,23.045237]]]]}},{"type":"Feature","properties":{"n":"三民路","v":"關山鎮","w":0,"c":2,"r":2},"geometry":{"type":"MultiPolygon","coordinates":[[[[121.160253,23.043264],[121.160214,23.043294],[121.160221,23.043294],[121.160764,23.044655],[121.160797,23.044643],[121.160246,23.043282],[121.160253,23.043264]]]]}},{"type":"Feature","properties":{"n":"自強路","v":"關山鎮","w":0,"c":0.9,"r":2},"geometry":{"type":"MultiPolygon","coordinates":[[[[121.159893,23.045166],[121.160814,23.04484],[121.160799,23.044813],[121.159882,23.045135],[121.158995,23.045401],[121.159005,23.045429],[121.159893,23.045166]]]]}},{"type":"Feature","properties":{"n":"民權路","v":"關山鎮","w":0,"c":1,"r":3},"geometry":{"type":"MultiPolygon","coordinates":[[[[121.159644,23.047082],[121.15776,23.047508],[121.157689,23.047514],[121.157618,23.047508],[121.15765,23.047556],[121.15776,23.047556],[121.158102,23.047472],[121.159651,23.047112],[121.159644,23.047082]]]]}},{"type":"Feature","properties":{"n":"學東路","v":"關山鎮","w":0,"c":2,"r":2},"geometry":{"type":"MultiPolygon","coordinates":[[[[121.159664,23.047105],[121.159625,23.047088],[121.160305,23.048897],[121.160337,23.048885],[121.159664,23.047105]]]]}},{"type":"Feature","properties":{"n":"豐隆路人行道","v":"關山鎮","w":0,"c":2,"r":2},"geometry":{"type":"MultiPolygon","coordinates":[[[[121.160337,23.048879],[121.159208,23.049298],[121.159293,23.049812],[121.159332,23.0498],[121.159247,23.049335],[121.160351,23.048915],[121.160337,23.048879]]]]}},{"type":"Feature","properties":{"n":"中正路","v":"關山鎮","w":0,"c":1,"r":4},"geometry":{"type":"MultiPolygon","coordinates":[[[[121.160554,23.046806],[121.160503,23.046776],[121.160988,23.048066],[121.161254,23.048729],[121.161279,23.048687],[121.161066,23.048174],[121.161014,23.048036],[121.160554,23.046806]]]]}},{"type":"Feature","properties":{"n":"民權路","v":"關山鎮","w":0,"c":3,"r":2},"geometry":{"type":"MultiPolygon","coordinates":[[[[121.160496,23.046782],[121.160032,23.046932],[121.160045,23.046968],[121.160554,23.046794],[121.160496,23.046782]]]]}},{"type":"Feature","properties":{"n":"民生路","v":"關山鎮","w":0,"c":3,"r":2},"geometry":{"type":"MultiPolygon","coordinates":[[[[121.161241,23.048735],[121.161279,23.048687],[121.160447,23.048957],[121.160518,23.048975],[121.161241,23.048735]]]]}},{"type":"Feature","properties":{"n":"圖書館周邊人行道","v":"關山鎮","w":0,"c":2,"r":3},"geometry":{"type":"MultiPolygon","coordinates":[[[[121.161804,23.044744],[121.161784,23.044696],[121.161081,23.044936],[121.161049,23.044924],[121.160894,23.04456],[121.160907,23.044524],[121.161623,23.044254],[121.161649,23.044272],[121.161798,23.044696],[121.161817,23.044732],[121.161836,23.044702],[121.161674,23.044231],[121.161623,23.044213],[121.160874,23.0445],[121.160861,23.044554],[121.161017,23.044954],[121.161068,23.044978],[121.161804,23.044744]]]]}},{"type":"Feature","properties":{"n":"大安路","v":"關山鎮","w":0,"c":2,"r":0},"geometry":{"type":"MultiPolygon","coordinates":[[[[121.165125,23.050553],[121.165086,23.050607],[121.163441,23.05114],[121.16337,23.051104],[121.163435,23.051247],[121.163473,23.051206],[121.164189,23.05096],[121.164376,23.050906],[121.165112,23.050672],[121.165176,23.050684],[121.165125,23.050553]]]]}},{"type":"Feature","properties":{"n":"市場南路","v":"關山鎮","w":0,"c":2,"r":0},"geometry":{"type":"MultiPolygon","coordinates":[[[[121.16429,23.048421],[121.16427,23.048457],[121.163548,23.048691],[121.163483,23.048667],[121.163535,23.048792],[121.163567,23.048751],[121.164335,23.048511],[121.164341,23.048505],[121.164296,23.048403],[121.16429,23.048421]]]]}},{"type":"Feature","properties":{"n":"忠孝路","v":"關山鎮","w":6.4,"c":6.4,"r":null},"geometry":{"type":"MultiPolygon","coordinates":[[[[121.161126,23.051796],[121.16112,23.051802],[121.16112,23.05185],[121.163223,23.051161],[121.163197,23.051119],[121.161126,23.051796]]]]}},{"type":"Feature","properties":{"n":"四維路,中正北路","v":"關山鎮","w":6.4,"c":6.4,"r":null},"geometry":{"type":"MultiPolygon","coordinates":[[[[121.163247,23.052579],[121.162772,23.051274],[121.162012,23.051525],[121.162515,23.052821],[121.16256,23.052806],[121.162068,23.051534],[121.162732,23.051313],[121.163199,23.052596],[121.163237,23.052584],[121.163247,23.052579]]]]}},{"type":"Feature","properties":{"n":"溫泉路","v":"卑南鄉","w":3,"c":2.1,"r":10},"geometry":{"type":"MultiPolygon","coordinates":[[[[121.021674,22.695172],[121.022163,22.695453],[121.022678,22.695895],[121.023232,22.696397],[121.024584,22.697675],[121.026181,22.69915],[121.026233,22.699097],[121.023966,22.696976],[121.023219,22.696271],[121.022575,22.695692],[121.022202,22.695381],[121.021738,22.695113],[121.021738,22.695125],[121.021674,22.695172]]]]}},{"type":"Feature","properties":{"n":"日昇路","v":"太麻里鄉","w":2,"c":1,"r":null},"geometry":{"type":"MultiPolygon","coordinates":[[[[121.005171,22.618654],[121.008303,22.616257],[121.008637,22.616045],[121.008624,22.616028],[121.008281,22.616243],[121.005153,22.618632],[121.005171,22.618654]]]]}},{"type":"Feature","properties":{"n":"民權路","v":"太麻里鄉","w":2,"c":1,"r":null},"geometry":{"type":"MultiPolygon","coordinates":[[[[121.008259,22.616262],[121.008323,22.616215],[121.007358,22.614876],[121.007255,22.614936],[121.008259,22.616262]]]]}},{"type":"Feature","properties":{"n":"德輝路","v":"太麻里鄉","w":2,"c":1,"r":null},"geometry":{"type":"MultiPolygon","coordinates":[[[[121.007679,22.614588],[121.007681,22.614585],[121.007272,22.614913],[121.006888,22.615209],[121.006683,22.615352],[121.006724,22.615405],[121.007725,22.614657],[121.007679,22.614588]]]]}},{"type":"Feature","properties":{"n":"新站路","v":"台東市","w":2,"c":0.9,"r":null},"geometry":{"type":"MultiPolygon","coordinates":[[[[121.124568,22.791002],[121.125033,22.795994],[121.125078,22.795994],[121.124592,22.790999],[121.124568,22.791002]]]]}},{"type":"Feature","properties":{"n":"南京路","v":"台東市","w":1.8,"c":0.9,"r":null},"geometry":{"type":"MultiPolygon","coordinates":[[[[121.145067,22.755252],[121.1484,22.75861],[121.148415,22.758605],[121.145086,22.755233],[121.145067,22.755252]]]]}},{"type":"Feature","properties":{"n":"民族路","v":"關山鎮","w":1.8,"c":0.9,"r":null},"geometry":{"type":"MultiPolygon","coordinates":[[[[121.162957,23.045047],[121.16295,23.045027],[121.162068,23.045319],[121.162034,23.045326],[121.161144,23.045626],[121.160191,23.045966],[121.159444,23.04622],[121.159453,23.046235],[121.160232,23.045976],[121.161132,23.045661],[121.16115,23.045645],[121.162074,23.045335],[121.162957,23.045047]]]]}},{"type":"Feature","properties":{"n":"東欣路","v":"池上鄉","w":1.5,"c":1.5,"r":2},"geometry":{"type":"MultiPolygon","coordinates":[[[[121.212244,23.120148],[121.20771,23.119987],[121.207697,23.119999],[121.212244,23.120148]]]]}},{"type":"Feature","properties":{"n":"東欣路","v":"池上鄉","w":1.5,"c":1.5,"r":2},"geometry":{"type":"MultiPolygon","coordinates":[[[[121.207697,23.119903],[121.212218,23.120065],[121.212192,23.120041],[121.207697,23.119903]]]]}},{"type":"Feature","properties":{"n":"忠孝路","v":"池上鄉","w":1.4,"c":1.4,"r":8},"geometry":{"type":"MultiPolygon","coordinates":[[[[121.21336,23.12086],[121.213379,23.120866],[121.213418,23.12089],[121.213979,23.120513],[121.214192,23.120435],[121.214463,23.120399],[121.214754,23.12038],[121.215445,23.120427],[121.215703,23.120487],[121.215845,23.120528],[121.215981,23.120576],[121.216207,23.120701],[121.21624,23.120647],[121.215994,23.120522],[121.215458,23.120367],[121.215077,23.12035],[121.214825,23.12032],[121.214521,23.120327],[121.214166,23.120399],[121.213947,23.120477],[121.21336,23.12086]]]]}},{"type":"Feature","properties":{"n":"公民路","v":"成功鎮","w":1,"c":1,"r":null},"geometry":{"type":"MultiPolygon","coordinates":[[[[121.375946,23.099657],[121.375336,23.099424],[121.375331,23.099443],[121.375939,23.099673],[121.375944,23.099659],[121.375946,23.099657]]]]}},{"type":"Feature","properties":{"n":"民生路","v":"成功鎮","w":1,"c":1,"r":null},"geometry":{"type":"MultiPolygon","coordinates":[[[[121.37721,23.100997],[121.37582,23.100451],[121.375808,23.100517],[121.377178,23.101057],[121.377204,23.100997],[121.37721,23.100997]]]]}},{"type":"Feature","properties":{"n":"民生路2巷","v":"成功鎮","w":1,"c":1,"r":null},"geometry":{"type":"MultiPolygon","coordinates":[[[[121.375788,23.100356],[121.376026,23.099752],[121.376006,23.09974],[121.375762,23.100344],[121.375788,23.10035],[121.375788,23.100356]]]]}},{"type":"Feature","properties":{"n":"新生路","v":"成功鎮","w":1,"c":1,"r":null},"geometry":{"type":"MultiPolygon","coordinates":[[[[121.376009,23.099719],[121.375355,23.100416],[121.375266,23.101052],[121.375279,23.101054],[121.375371,23.100418],[121.376014,23.099733],[121.376007,23.099726],[121.376009,23.099719]]]]}},{"type":"Feature","properties":{"n":"新生路","v":"成功鎮","w":1,"c":1,"r":null},"geometry":{"type":"MultiPolygon","coordinates":[[[[121.375272,23.101065],[121.375646,23.101965],[121.375639,23.102101],[121.375652,23.102087],[121.375662,23.101967],[121.375287,23.101067],[121.375274,23.101067],[121.375272,23.101065]]]]}},{"type":"Feature","properties":{"n":"新生路","v":"成功鎮","w":1,"c":1,"r":null},"geometry":{"type":"MultiPolygon","coordinates":[[[[121.375646,23.102108],[121.376588,23.102476],[121.37659,23.102457],[121.375654,23.102096],[121.375649,23.102106],[121.375646,23.102108]]]]}},{"type":"Feature","properties":{"n":"民族路","v":"成功鎮","w":1,"c":1,"r":null},"geometry":{"type":"MultiPolygon","coordinates":[[[[121.376591,23.102444],[121.377169,23.101075],[121.377117,23.101057],[121.376566,23.10242],[121.376591,23.102432],[121.376591,23.102444]]]]}},{"type":"Feature","properties":{"n":"正興產業道路","v":"金峰鄉","w":5.4,"c":3.6,"r":null},"geometry":{"type":"MultiPolygon","coordinates":[[[[120.997428,22.604157],[120.997289,22.604522],[120.997333,22.604537],[120.997474,22.604171],[120.997428,22.604157]]]]}},{"type":"Feature","properties":{"n":"正興產業道路","v":"金峰鄉","w":5.4,"c":3.6,"r":null},"geometry":{"type":"MultiPolygon","coordinates":[[[[120.997274,22.604709],[120.997212,22.60469],[120.996985,22.605294],[120.997042,22.605311],[120.997274,22.604709]]]]}},{"type":"Feature","properties":{"n":"正興產業道路","v":"金峰鄉","w":5.4,"c":3.6,"r":null},"geometry":{"type":"MultiPolygon","coordinates":[[[[120.996994,22.605436],[120.996943,22.605422],[120.996717,22.606012],[120.99668,22.606048],[120.996771,22.606079],[120.996763,22.606036],[120.996994,22.605436]]]]}},{"type":"Feature","properties":{"n":"正興產業道路","v":"金峰鄉","w":5.4,"c":3.6,"r":null},"geometry":{"type":"MultiPolygon","coordinates":[[[[120.997877,22.604711],[120.998055,22.604298],[120.998109,22.604281],[120.997947,22.604233],[120.997772,22.60468],[120.997877,22.604711]]]]}},{"type":"Feature","properties":{"n":"正興產業道路","v":"金峰鄉","w":5.4,"c":3.6,"r":null},"geometry":{"type":"MultiPolygon","coordinates":[[[[120.997485,22.60546],[120.997578,22.605489],[120.997796,22.604901],[120.997706,22.60487],[120.997485,22.60546]]]]}},{"type":"Feature","properties":{"n":"正興產業道路","v":"金峰鄉","w":5.4,"c":3.6,"r":null},"geometry":{"type":"MultiPolygon","coordinates":[[[[120.997534,22.605609],[120.997444,22.605577],[120.997204,22.606218],[120.997289,22.606242],[120.997534,22.605609]]]]}},{"type":"Feature","properties":{"n":"四維路","v":"台東市","w":3,"c":1.5,"r":null},"geometry":{"type":"MultiPolygon","coordinates":[[[[121.152272,22.760973],[121.160439,22.7544],[121.160421,22.754381],[121.152256,22.760958],[121.152272,22.760973]]]]}},{"type":"Feature","properties":{"n":"四維路","v":"台東市","w":3,"c":1.5,"r":null},"geometry":{"type":"MultiPolygon","coordinates":[[[[121.15224,22.76097],[121.151583,22.761525],[121.151617,22.762017],[121.151502,22.764631],[121.151409,22.765004],[121.151255,22.765258],[121.151062,22.765504],[121.150684,22.765748],[121.150488,22.765801],[121.149867,22.76582],[121.149243,22.765795],[121.149246,22.765826],[121.149854,22.765847],[121.150503,22.76582],[121.150686,22.765767],[121.151083,22.765521],[121.15126,22.765293],[121.151435,22.765018],[121.151538,22.764624],[121.151638,22.762],[121.151604,22.76153],[121.15224,22.76097]]]]}},{"type":"Feature","properties":{"n":"四維路","v":"台東市","w":3,"c":1.5,"r":null},"geometry":{"type":"MultiPolygon","coordinates":[[[[121.149223,22.765823],[121.149223,22.765804],[121.146523,22.76577],[121.145232,22.765786],[121.143902,22.765766],[121.14323,22.765769],[121.141444,22.765734],[121.140408,22.76575],[121.140411,22.765771],[121.141408,22.765756],[121.143884,22.765789],[121.145211,22.765803],[121.146497,22.765799],[121.149223,22.765828],[121.149223,22.765823]]]]}},{"type":"Feature","properties":{"n":"四維路","v":"台東市","w":3,"c":1.5,"r":null},"geometry":{"type":"MultiPolygon","coordinates":[[[[121.140377,22.765774],[121.140382,22.76575],[121.139279,22.765773],[121.138856,22.765341],[121.138015,22.764589],[121.137157,22.763877],[121.136295,22.763207],[121.13628,22.763221],[121.137157,22.763908],[121.137662,22.764333],[121.138136,22.764744],[121.138449,22.765033],[121.138861,22.765377],[121.139253,22.765797],[121.140377,22.765774]]]]}},{"type":"Feature","properties":{"n":"復興路","v":"達仁鄉","w":3,"c":3,"r":null},"geometry":{"type":"MultiPolygon","coordinates":[[[[120.883187,22.296709],[120.883341,22.296781],[120.884652,22.29542],[120.886206,22.295277],[120.886822,22.295194],[120.887156,22.294812],[120.887002,22.2948],[120.886732,22.295158],[120.884755,22.295229],[120.885115,22.294847],[120.884961,22.294835],[120.884537,22.295276],[120.88324,22.295323],[120.883266,22.29475],[120.883176,22.294774],[120.88315,22.295466],[120.88446,22.295396],[120.8832,22.296697],[120.883187,22.296709]]]]}},{"type":"Feature","properties":{"n":"台11線長濱下坑","v":"長濱鄉","w":1.5,"c":1.5,"r":null},"geometry":{"type":"MultiPolygon","coordinates":[[[[121.457454,23.316248],[121.457459,23.316263],[121.458086,23.31584],[121.458445,23.315548],[121.458455,23.3154],[121.458529,23.315337],[121.458524,23.315323],[121.458442,23.315397],[121.458427,23.315536],[121.458081,23.315826],[121.457454,23.316248]]]]}},{"type":"Feature","properties":{"n":"長濱國中體育館","v":"長濱鄉","w":1.5,"c":1.5,"r":null},"geometry":{"type":"MultiPolygon","coordinates":[[[[121.459369,23.315767],[121.459348,23.315741],[121.459244,23.315576],[121.459223,23.315512],[121.459032,23.315479],[121.458975,23.315455],[121.458959,23.315484],[121.458931,23.31547],[121.458949,23.315436],[121.458838,23.315441],[121.458858,23.315386],[121.458674,23.31533],[121.45861,23.31537],[121.458999,23.315632],[121.459196,23.31582],[121.45933,23.315789],[121.459369,23.315767]]]]}},{"type":"Feature","properties":{"n":"長濱國中側門","v":"長濱鄉","w":3,"c":3,"r":null},"geometry":{"type":"MultiPolygon","coordinates":[[[[121.45782,23.315043],[121.458013,23.314925],[121.458044,23.314892],[121.458054,23.314842],[121.457929,23.314465],[121.457887,23.314479],[121.458013,23.314839],[121.45801,23.314885],[121.457998,23.314911],[121.457807,23.315029],[121.45782,23.315043]]]]}},{"type":"Feature","properties":{"n":"長濱鎮濱宮周邊","v":"長濱鄉","w":1.5,"c":1.5,"r":null},"geometry":{"type":"MultiPolygon","coordinates":[[[[121.456164,23.31824],[121.456167,23.318249],[121.456888,23.317899],[121.457409,23.317634],[121.457443,23.317608],[121.457463,23.317553],[121.457202,23.316865],[121.457109,23.316691],[121.457046,23.316596],[121.457033,23.316598],[121.457088,23.316679],[121.457192,23.31687],[121.457453,23.317555],[121.45743,23.317608],[121.457404,23.317629],[121.456882,23.317887],[121.456164,23.31824]]]]}},{"type":"Feature","properties":{"n":"長濱菜市場周邊","v":"長濱鄉","w":1.5,"c":1.5,"r":null},"geometry":{"type":"MultiPolygon","coordinates":[[[[121.455988,23.317225],[121.455936,23.317194],[121.455671,23.316887],[121.455978,23.316613],[121.45597,23.316601],[121.455653,23.316887],[121.455931,23.317204],[121.455985,23.317232],[121.455988,23.317225]]]]}},{"type":"Feature","properties":{"n":"長濱國校正門前周邊","v":"長濱鄉","w":1.5,"c":1.5,"r":null},"geometry":{"type":"MultiPolygon","coordinates":[[[[121.45238,23.315277],[121.452617,23.314964],[121.452643,23.314954],[121.452674,23.314959],[121.453529,23.315484],[121.453534,23.315472],[121.452689,23.314956],[121.45265,23.314945],[121.452606,23.314959],[121.452372,23.315268],[121.45238,23.315277]]]]}},{"type":"Feature","properties":{"n":"正氣北路","v":"台東市","w":6,"c":6,"r":null},"geometry":{"type":"MultiPolygon","coordinates":[[[[121.130899,22.755323],[121.130827,22.755194],[121.120132,22.759999],[121.120228,22.760183],[121.130899,22.755323]]]]}},{"type":"Feature","properties":{"n":"正氣路-傳廣路","v":"台東市","w":2,"c":2,"r":null},"geometry":{"type":"MultiPolygon","coordinates":[[[[121.145867,22.757332],[121.145869,22.757203],[121.143955,22.757205],[121.143922,22.759688],[121.144014,22.759687],[121.144017,22.757322],[121.145864,22.757332],[121.145867,22.757332]]]]}},{"type":"Feature","properties":{"n":"強國街","v":"台東市","w":4,"c":4,"r":null},"geometry":{"type":"MultiPolygon","coordinates":[[[[121.156088,22.760897],[121.156015,22.760835],[121.153923,22.762534],[121.154005,22.762617],[121.156082,22.760902],[121.156088,22.760897]]]]}},{"type":"Feature","properties":{"n":"民權路141巷","v":"關山鎮","w":5.5,"c":5.5,"r":null},"geometry":{"type":"MultiPolygon","coordinates":[[[[121.158882,23.047248],[121.158928,23.047239],[121.158729,23.046718],[121.158517,23.046336],[121.158222,23.045636],[121.158252,23.045583],[121.158139,23.045579],[121.158475,23.046374],[121.158628,23.046716],[121.158701,23.046775],[121.158877,23.047253],[121.158882,23.047248]]]]}},{"type":"Feature","properties":{"n":"南山新村","v":"關山鎮","w":4.6,"c":4.6,"r":null},"geometry":{"type":"MultiPolygon","coordinates":[[[[121.15853,23.046496],[121.158475,23.046379],[121.158442,23.046403],[121.157424,23.04606],[121.157106,23.045637],[121.157119,23.045594],[121.157013,23.045592],[121.157393,23.04611],[121.158525,23.046496],[121.15853,23.046496]]]]}},{"type":"Feature","properties":{"n":"自強路","v":"關山鎮","w":6.2,"c":6.2,"r":null},"geometry":{"type":"MultiPolygon","coordinates":[[[[121.157005,23.045592],[121.157003,23.045587],[121.15825,23.045586],[121.158167,23.045517],[121.156956,23.045535],[121.157005,23.045592]]]]}},{"type":"Feature","properties":{"n":"南山新村","v":"關山鎮","w":7.6,"c":7.6,"r":null},"geometry":{"type":"MultiPolygon","coordinates":[[[[121.157765,23.04617],[121.157812,23.046048],[121.157771,23.046],[121.157709,23.046149],[121.157765,23.04617]]]]}},{"type":"Feature","properties":{"n":"南山新村","v":"關山鎮","w":4.6,"c":4.6,"r":null},"geometry":{"type":"MultiPolygon","coordinates":[[[[121.157876,23.045589],[121.157799,23.045583],[121.157797,23.045776],[121.157877,23.045962],[121.157841,23.045981],[121.157701,23.045812],[121.157711,23.045778],[121.157791,23.045776],[121.157794,23.045723],[121.157577,23.045723],[121.15781,23.046043],[121.157993,23.046086],[121.157998,23.04606],[121.157858,23.045718],[121.157874,23.045589],[121.157876,23.045589]]]]}},{"type":"Feature","properties":{"n":"中正路","v":"關山鎮","w":6.4,"c":6.4,"r":null},"geometry":{"type":"MultiPolygon","coordinates":[[[[121.162217,23.051438],[121.162336,23.051399],[121.162305,23.051378],[121.162017,23.050635],[121.161948,23.050659],[121.162075,23.051003],[121.162113,23.051058],[121.162235,23.051411],[121.162214,23.051438],[121.162217,23.051438]]]]}},{"type":"Feature","properties":{"n":"中正路91巷","v":"關山鎮","w":4.4,"c":4.4,"r":null},"geometry":{"type":"MultiPolygon","coordinates":[[[[121.162106,23.051044],[121.162069,23.051001],[121.161293,23.051295],[121.161256,23.051367],[121.162106,23.051044]]]]}},{"type":"Feature","properties":{"n":"長濱上坑","v":"長濱鄉","w":1.5,"c":1.5,"r":null},"geometry":{"type":"MultiPolygon","coordinates":[[[[121.45565,23.317446],[121.456176,23.317172],[121.456471,23.316989],[121.457408,23.316334],[121.457392,23.316315],[121.456953,23.316622],[121.456385,23.317001],[121.456132,23.31716],[121.455637,23.317429],[121.45565,23.317446]]]]}},{"type":"Feature","properties":{"n":"長濱上坑1","v":"長濱鄉","w":1.5,"c":1.5,"r":null},"geometry":{"type":"MultiPolygon","coordinates":[[[[121.454884,23.316843],[121.455431,23.316383],[121.456149,23.316068],[121.456565,23.315821],[121.456898,23.315588],[121.456882,23.315574],[121.456552,23.315804],[121.456116,23.316054],[121.455646,23.31627],[121.455403,23.316359],[121.454864,23.31682],[121.454884,23.316843]]]]}},{"type":"Feature","properties":{"n":"長濱上坑2","v":"長濱鄉","w":1.5,"c":1.5,"r":null},"geometry":{"type":"MultiPolygon","coordinates":[[[[121.457038,23.31655],[121.457071,23.316526],[121.456577,23.315818],[121.456546,23.315837],[121.457038,23.31655]]]]}},{"type":"Feature","properties":{"n":"長濱鎮濱宮往國小","v":"長濱鄉","w":1.5,"c":1.5,"r":null},"geometry":{"type":"MultiPolygon","coordinates":[[[[121.456896,23.317858],[121.456928,23.317843],[121.456683,23.317251],[121.456553,23.317068],[121.456011,23.316537],[121.455792,23.316291],[121.455629,23.316249],[121.454784,23.315833],[121.454596,23.3158],[121.454285,23.315791],[121.453511,23.315712],[121.453405,23.315748],[121.45331,23.315863],[121.453338,23.315875],[121.453421,23.315765],[121.453522,23.315743],[121.454267,23.315822],[121.454513,23.315826],[121.454769,23.315866],[121.455539,23.316255],[121.455752,23.316338],[121.456109,23.316665],[121.456466,23.317023],[121.456622,23.317249],[121.456896,23.317858]]]]}},{"type":"Feature","properties":{"n":"環島公路","v":"蘭嶼鄉","w":1.8,"c":1.8,"r":null},"geometry":{"type":"MultiPolygon","coordinates":[[[[121.509089,22.058973],[121.509103,22.059118],[121.509139,22.059209],[121.509301,22.059464],[121.509397,22.059727],[121.509594,22.060381],[121.509687,22.060536],[121.50971,22.060533],[121.509612,22.060364],[121.509565,22.060173],[121.509415,22.059717],[121.509309,22.059445],[121.509126,22.059111],[121.509107,22.05898],[121.509089,22.058973]]]]}},{"type":"Feature","properties":{"n":"中興路","v":"台東市","w":4.5,"c":2,"r":null},"geometry":{"type":"MultiPolygon","coordinates":[[[[121.136311,22.768039],[121.143855,22.768008],[121.143855,22.767987],[121.136336,22.768015],[121.136311,22.768039]]]]}},{"type":"Feature","properties":{"n":"浙江路","v":"台東市","w":4.6,"c":4.6,"r":null},"geometry":{"type":"MultiPolygon","coordinates":[[[[121.149394,22.763651],[121.149342,22.763696],[121.149329,22.765426],[121.14938,22.765429],[121.149394,22.763651]]]]}},{"type":"Feature","properties":{"n":"開封街680巷","v":"台東市","w":3,"c":3,"r":null},"geometry":{"type":"MultiPolygon","coordinates":[[[[121.135308,22.761727],[121.138578,22.759803],[121.138573,22.759786],[121.135311,22.761715],[121.135308,22.761727]]]]}},{"type":"Feature","properties":{"n":"大學路","v":"台東市","w":5,"c":5,"r":null},"geometry":{"type":"MultiPolygon","coordinates":[[[[121.085086,22.720652],[121.052912,22.756282],[121.052927,22.756289],[121.085094,22.720695],[121.085086,22.720652]]]]}},{"type":"Feature","properties":{"n":"溫泉路","v":"卑南鄉","w":3.3,"c":1.8,"r":null},"geometry":{"type":"MultiPolygon","coordinates":[[[[121.026215,22.699096],[121.026179,22.699153],[121.026527,22.699499],[121.026746,22.699865],[121.027236,22.701485],[121.027444,22.701781],[121.027828,22.702147],[121.02864,22.702555],[121.029662,22.703014],[121.030316,22.703136],[121.030543,22.703164],[121.032737,22.702882],[121.032892,22.702913],[121.033543,22.703228],[121.033664,22.703111],[121.032843,22.702755],[121.032691,22.702755],[121.030813,22.703018],[121.030198,22.703014],[121.029456,22.702835],[121.028882,22.702593],[121.02763,22.701927],[121.027295,22.701463],[121.026831,22.699865],[121.026576,22.699444],[121.026215,22.699096]]]]}},{"type":"Feature","properties":{"n":"中興路一段","v":"台東市","w":10,"c":4.5,"r":10},"geometry":{"type":"MultiPolygon","coordinates":[[[[121.136318,22.768037],[121.145637,22.768011],[121.143894,22.768003],[121.136318,22.768037]]]]}},{"type":"Feature","properties":{"n":"新生路","v":"台東市","w":4,"c":4,"r":null},"geometry":{"type":"MultiPolygon","coordinates":[[[[121.14509,22.755232],[121.145952,22.75439],[121.145939,22.754371],[121.145067,22.755222],[121.145087,22.755232],[121.14509,22.755232]]]]}},{"type":"Feature","properties":{"n":"紅葉路","v":"延平鄉","w":5,"c":4.1,"r":2},"geometry":{"type":"MultiPolygon","coordinates":[[[[121.063287,22.893711],[121.063227,22.89385],[121.063934,22.893919],[121.064035,22.893924],[121.064274,22.893921],[121.064388,22.893885],[121.065878,22.893189],[121.06594,22.893175],[121.065901,22.893067],[121.065881,22.893067],[121.06578,22.893103],[121.064334,22.893787],[121.064194,22.893816],[121.064019,22.893816],[121.063325,22.893742],[121.063287,22.893711]]]]}},{"type":"Feature","properties":{"n":"吉泰路","v":"台東市","w":5,"c":2.5,"r":10},"geometry":{"type":"MultiPolygon","coordinates":[[[[121.057362,22.706295],[121.057052,22.709781],[121.056821,22.714034],[121.057362,22.706295]]]]}},{"type":"Feature","properties":{"n":"達仁鄉安朔村通學步道及醫療院所旁通行步道改善工程","v":"達仁鄉","w":1.13,"c":1.13,"r":null},"geometry":{"type":"MultiPolygon","coordinates":[[[[120.868426,22.294471],[120.868547,22.294189],[120.868542,22.294187],[120.868426,22.294471]]]]}},{"type":"Feature","properties":{"n":"火車站前道路","v":"大武鄉","w":4,"c":4,"r":3},"geometry":{"type":"MultiPolygon","coordinates":[[[[120.900256,22.364622],[120.900371,22.364629],[120.901635,22.364965],[120.902038,22.365326],[120.902051,22.365318],[120.90164,22.364953],[120.900369,22.364617],[120.900261,22.364612],[120.900256,22.364622]]]]}},{"type":"Feature","properties":{"n":"學府路","v":"大武鄉","w":5,"c":3,"r":null},"geometry":{"type":"MultiPolygon","coordinates":[[[[120.888901,22.340319],[120.890034,22.339737],[120.890502,22.339508],[120.891776,22.339057],[120.892221,22.338978],[120.892604,22.338964],[120.892604,22.33895],[120.892221,22.338964],[120.891769,22.339045],[120.890492,22.339496],[120.888891,22.340302],[120.888857,22.340328],[120.888837,22.340362],[120.88886,22.340367],[120.88888,22.340331],[120.888896,22.340326],[120.888901,22.340319]]]]}},{"type":"Feature","properties":{"n":"客庄南路","v":"大武鄉","w":6,"c":4,"r":null},"geometry":{"type":"MultiPolygon","coordinates":[[[[120.890004,22.339738],[120.890022,22.339731],[120.889966,22.33927],[120.890074,22.338861],[120.890372,22.338756],[120.890593,22.338984],[120.890649,22.33944],[120.89067,22.33943],[120.890611,22.338979],[120.89037,22.338735],[120.890059,22.338849],[120.889948,22.33927],[120.890004,22.339738]]]]}},{"type":"Feature","properties":{"n":"大鳥國小前道路","v":"大武鄉","w":4,"c":3,"r":3},"geometry":{"type":"MultiPolygon","coordinates":[[[[120.911618,22.382039],[120.911615,22.382044],[120.9116,22.382044],[120.91161,22.382135],[120.911488,22.383117],[120.911301,22.38348],[120.911308,22.38349],[120.911504,22.383122],[120.911628,22.382147],[120.911618,22.382039]]]]}},{"type":"Feature","properties":{"n":"信義路","v":"台東市","w":1.5,"c":1.5,"r":2},"geometry":{"type":"MultiPolygon","coordinates":[[[[121.146619,22.755034],[121.147929,22.753934],[121.147916,22.753922],[121.146611,22.755027],[121.146613,22.755032],[121.146619,22.755034]]]]}},{"type":"Feature","properties":{"n":"民豐街","v":"成功鎮","w":1.5,"c":1.5,"r":null},"geometry":{"type":"MultiPolygon","coordinates":[[[[121.384178,23.100395],[121.384258,23.100416],[121.38426,23.100225],[121.383631,23.098793],[121.383559,23.098824],[121.384185,23.100216],[121.384181,23.10039],[121.384178,23.100395]]]]}},{"type":"Feature","properties":{"n":"光榮路","v":"鹿野鄉","w":2,"c":1,"r":0},"geometry":{"type":"MultiPolygon","coordinates":[[[[121.113334,22.904143],[121.113337,22.90419],[121.116684,22.904103],[121.13074,22.903686],[121.130728,22.903644],[121.113335,22.90415],[121.113334,22.904143]]]]}},{"type":"Feature","properties":{"n":"富榮街","v":"台東市","w":1.9,"c":1.2,"r":null},"geometry":{"type":"MultiPolygon","coordinates":[[[[121.049466,22.715885],[121.049569,22.715992],[121.051604,22.714355],[121.052633,22.713052],[121.052749,22.712968],[121.052826,22.712956],[121.056728,22.713039],[121.056741,22.712895],[121.052762,22.712813],[121.052672,22.712825],[121.052569,22.712921],[121.051578,22.714163],[121.051423,22.714331],[121.049466,22.715885]]]]}},{"type":"Feature","properties":{"n":"新興路","v":"台東市","w":5.5,"c":3.5,"r":null},"geometry":{"type":"MultiPolygon","coordinates":[[[[121.126735,22.793397],[121.125138,22.793458],[121.125009,22.793398],[121.124931,22.793327],[121.124879,22.792789],[121.124841,22.792765],[121.124893,22.793362],[121.125073,22.793506],[121.126851,22.793445],[121.126954,22.793373],[121.127032,22.79317],[121.12707,22.792692],[121.127031,22.792692],[121.126993,22.793194],[121.126851,22.793325],[121.126735,22.793397]]]]}},{"type":"Feature","properties":{"n":"興安路","v":"台東市","w":5.5,"c":3.5,"r":null},"geometry":{"type":"MultiPolygon","coordinates":[[[[121.127014,22.794962],[121.127052,22.794962],[121.127116,22.794221],[121.127026,22.793982],[121.126794,22.793839],[121.126098,22.793875],[121.126098,22.793923],[121.12615,22.793887],[121.126768,22.793875],[121.126987,22.793994],[121.127078,22.794209],[121.127014,22.794962]]]]}},{"type":"Feature","properties":{"n":"興安路","v":"台東市","w":5.5,"c":3.5,"r":null},"geometry":{"type":"MultiPolygon","coordinates":[[[[121.125963,22.793923],[121.12595,22.793875],[121.125177,22.7939],[121.124984,22.794079],[121.125075,22.795071],[121.125088,22.795071],[121.125009,22.794127],[121.125048,22.794031],[121.125164,22.793924],[121.125911,22.793887],[121.125963,22.793923]]]]}},{"type":"Feature","properties":{"n":"民族街","v":"大武鄉","w":3,"c":3,"r":4},"geometry":{"type":"MultiPolygon","coordinates":[[[[120.907324,22.363401],[120.907318,22.363386],[120.906277,22.363737],[120.905658,22.363815],[120.904951,22.363739],[120.903675,22.363719],[120.903418,22.363738],[120.903412,22.363751],[120.903688,22.363727],[120.904954,22.363752],[120.905667,22.36383],[120.906283,22.363753],[120.907324,22.363401]]]]}},{"type":"Feature","properties":{"n":"建興路","v":"台東市","w":9,"c":9,"r":null},"geometry":{"type":"MultiPolygon","coordinates":[[[[121.033963,22.703245],[121.033883,22.703366],[121.034303,22.70357],[121.035629,22.704109],[121.037723,22.704914],[121.037975,22.704826],[121.039142,22.704617],[121.039513,22.704562],[121.039549,22.704417],[121.037816,22.704694],[121.03762,22.704689],[121.037419,22.704649],[121.036541,22.70431],[121.035477,22.703882],[121.034547,22.703524],[121.033963,22.703245]]]]}},{"type":"Feature","properties":{"n":"岩灣路101巷","v":"台東市","w":2,"c":2,"r":null},"geometry":{"type":"MultiPolygon","coordinates":[[[[121.120658,22.791353],[121.120639,22.791353],[121.121063,22.79409],[121.121079,22.79409],[121.120658,22.791353]]]]}},{"type":"Feature","properties":{"n":"興安路2段","v":"台東市","w":9,"c":7.2,"r":12},"geometry":{"type":"MultiPolygon","coordinates":[[[[121.126571,22.798976],[121.126936,22.798988],[121.126882,22.798949],[121.12688,22.798941],[121.127188,22.795133],[121.126939,22.795133],[121.126571,22.798976]]]]}},{"type":"Feature","properties":{"n":"南島大道","v":"台東市","w":4.4,"c":4.4,"r":9},"geometry":{"type":"MultiPolygon","coordinates":[[[[121.120917,22.767366],[121.120973,22.767249],[121.122328,22.766755],[121.122368,22.76675],[121.12243,22.766792],[121.122478,22.76673],[121.122494,22.766693],[121.123803,22.766203],[121.126254,22.765533],[121.126354,22.765521],[121.126399,22.765491],[121.126405,22.765422],[121.126461,22.765352],[121.126383,22.765305],[121.126252,22.765335],[121.126238,22.765382],[121.126198,22.765439],[121.12509,22.765728],[121.123851,22.76608],[121.122411,22.766601],[121.122328,22.766604],[121.12232,22.766638],[121.121013,22.767133],[121.120954,22.767133],[121.120882,22.767094],[121.120917,22.767366]]]]}},{"type":"Feature","properties":{"n":"文昌路","v":"台東市","w":3,"c":1.6,"r":10},"geometry":{"type":"MultiPolygon","coordinates":[[[[121.124503,22.790858],[121.124267,22.790986],[121.120909,22.791362],[121.120737,22.791323],[121.120855,22.791432],[121.124524,22.791026],[121.124503,22.790858]]]]}},{"type":"Feature","properties":{"n":"民航路","v":"台東市","w":4.8,"c":2.5,"r":49},"geometry":{"type":"MultiPolygon","coordinates":[[[[121.117312,22.753832],[121.119908,22.760323],[121.120842,22.768885],[121.121094,22.768845],[121.120112,22.760036],[121.117559,22.753743],[121.117312,22.753832]]]]}},{"type":"Feature","properties":{"n":"中華路一段406巷","v":"鹿野鄉","w":1.5,"c":1.5,"r":2},"geometry":{"type":"MultiPolygon","coordinates":[[[[121.136285,22.909732],[121.13684,22.909774],[121.13684,22.909759],[121.136288,22.909717],[121.136288,22.909732],[121.136285,22.909732]]]]}},{"type":"Feature","properties":{"n":"南海路","v":"台東市","w":2,"c":2,"r":0},"geometry":{"type":"MultiPolygon","coordinates":[[[[121.154537,22.747258],[121.15546,22.747718],[121.155744,22.747911],[121.157048,22.749172],[121.157369,22.749682],[121.157085,22.749147],[121.155717,22.747851],[121.15547,22.747678],[121.154537,22.747258]]]]}},{"type":"Feature","properties":{"n":"中華路1段892巷","v":"台東市","w":3,"c":3,"r":0},"geometry":{"type":"MultiPolygon","coordinates":[[[[121.139657,22.751251],[121.13969,22.751261],[121.141229,22.749034],[121.142763,22.746699],[121.142737,22.746689],[121.141438,22.748668],[121.139657,22.751251]]]]}},{"type":"Feature","properties":{"n":"仁愛國小周邊道路","v":"台東市","w":1.5,"c":1.5,"r":0},"geometry":{"type":"MultiPolygon","coordinates":[[[[121.157417,22.75703],[121.158871,22.758539],[121.160132,22.75751],[121.158667,22.755996],[121.15864,22.756041],[121.160073,22.757515],[121.158876,22.758475],[121.157455,22.757001],[121.157417,22.75703]]]]}},{"type":"Feature","properties":{"n":"館前路","v":"台東市","w":2,"c":2,"r":0},"geometry":{"type":"MultiPolygon","coordinates":[[[[121.093268,22.759879],[121.093483,22.759761],[121.095671,22.759028],[121.097034,22.758578],[121.097823,22.75843],[121.097828,22.75838],[121.097055,22.758549],[121.093461,22.759746],[121.093252,22.759859],[121.093268,22.759879]]]]}},{"type":"Feature","properties":{"n":"臨海路一段","v":"台東市","w":2,"c":2,"r":0},"geometry":{"type":"MultiPolygon","coordinates":[[[[121.156609,22.750539],[121.158781,22.752815],[121.15964,22.753685],[121.160251,22.754353],[121.160278,22.754329],[121.159613,22.753601],[121.158814,22.75279],[121.158014,22.751959],[121.157295,22.751202],[121.15663,22.750524],[121.156609,22.750539]]]]}},{"type":"Feature","properties":{"n":"博物館路51巷","v":"台東市","w":2.4,"c":2,"r":4},"geometry":{"type":"MultiPolygon","coordinates":[[[[121.093977,22.763714],[121.093996,22.763732],[121.094296,22.763358],[121.0945,22.763178],[121.09494,22.762901],[121.094926,22.762881],[121.094494,22.763158],[121.094288,22.763329],[121.094175,22.76346],[121.093977,22.763714]]]]}},{"type":"Feature","properties":{"n":"博物館路51巷","v":"台東市","w":2.4,"c":2,"r":4},"geometry":{"type":"MultiPolygon","coordinates":[[[[121.094173,22.763853],[121.094411,22.763573],[121.09458,22.763385],[121.095034,22.763096],[121.095023,22.763076],[121.09457,22.763361],[121.094151,22.763838],[121.094173,22.763853]]]]}},{"type":"Feature","properties":{"n":"四維路二段","v":"台東市","w":4,"c":4,"r":8},"geometry":{"type":"MultiPolygon","coordinates":[[[[121.15204,22.760858],[121.151536,22.761234],[121.151531,22.761263],[121.151375,22.761387],[121.151348,22.761486],[121.151327,22.763464],[121.151381,22.763464],[121.151397,22.761466],[121.151536,22.761288],[121.152078,22.760892],[121.15204,22.760858]]]]}},{"type":"Feature","properties":{"n":"開封街","v":"台東市","w":5,"c":4,"r":2},"geometry":{"type":"MultiPolygon","coordinates":[[[[121.149338,22.763509],[121.151321,22.763499],[121.151318,22.763462],[121.149381,22.763472],[121.149341,22.763425],[121.149333,22.763509],[121.149338,22.763509]]]]}},{"type":"Feature","properties":{"n":"浙江路","v":"台東市","w":4,"c":4,"r":4},"geometry":{"type":"MultiPolygon","coordinates":[[[[121.149301,22.763506],[121.14933,22.763506],[121.149336,22.763415],[121.149352,22.7618],[121.14932,22.761802],[121.149314,22.762482],[121.149298,22.763506],[121.149301,22.763506]]]]}},{"type":"Feature","properties":{"n":"四維路二段","v":"台東市","w":5,"c":4,"r":2},"geometry":{"type":"MultiPolygon","coordinates":[[[[121.151385,22.763647],[121.151372,22.76435],[121.151364,22.764537],[121.151149,22.765131],[121.151042,22.765262],[121.150851,22.765455],[121.150522,22.765601],[121.150345,22.765633],[121.149366,22.765638],[121.149363,22.765673],[121.150345,22.765668],[121.15086,22.7655],[121.151163,22.765141],[121.151396,22.764495],[121.15142,22.763647],[121.151385,22.763647]]]]}},{"type":"Feature","properties":{"n":"新生路641巷","v":"台東市","w":2.5,"c":2.5,"r":2},"geometry":{"type":"MultiPolygon","coordinates":[[[[121.135587,22.761953],[121.135973,22.762272],[121.135984,22.762258],[121.135598,22.761943],[121.135587,22.761953]]]]}},{"type":"Feature","properties":{"n":"新生路","v":"台東市","w":2.5,"c":2.5,"r":5},"geometry":{"type":"MultiPolygon","coordinates":[[[[121.134718,22.764681],[121.13474,22.764701],[121.135528,22.76388],[121.135507,22.76386],[121.134718,22.764681]]]]}},{"type":"Feature","properties":{"n":"中華路一段","v":"台東市","w":3.8,"c":3.8,"r":2},"geometry":{"type":"MultiPolygon","coordinates":[[[[121.144623,22.747476],[121.146536,22.748399],[121.146557,22.748369],[121.14464,22.747442],[121.144623,22.747476]]]]}},{"type":"Feature","properties":{"n":"中華路一段","v":"台東市","w":3.8,"c":3.8,"r":2},"geometry":{"type":"MultiPolygon","coordinates":[[[[121.144623,22.747476],[121.146536,22.748399],[121.146557,22.748369],[121.14464,22.747442],[121.144623,22.747476]]]]}},{"type":"Feature","properties":{"n":"桂林南路","v":"台東市","w":1.5,"c":1.5,"r":16},"geometry":{"type":"MultiPolygon","coordinates":[[[[121.14454,22.747375],[121.144551,22.74738],[121.145957,22.744832],[121.14593,22.744812],[121.14454,22.747375]]]]}},{"type":"Feature","properties":{"n":"桂林南路 238 巷","v":"台東市","w":1.5,"c":1.5,"r":4},"geometry":{"type":"MultiPolygon","coordinates":[[[[121.146555,22.745029],[121.146538,22.745053],[121.146699,22.745123],[121.147306,22.745682],[121.147338,22.745652],[121.146705,22.745088],[121.146555,22.745029]]]]}},{"type":"Feature","properties":{"n":"桂林南路 238 巷","v":"台東市","w":1.5,"c":1.5,"r":null},"geometry":{"type":"MultiPolygon","coordinates":[[[[121.14653,22.745053],[121.146547,22.745024],[121.146066,22.744841],[121.146064,22.744806],[121.146088,22.744757],[121.146056,22.744749],[121.146018,22.744811],[121.146042,22.74486],[121.14653,22.745053]]]]}},{"type":"Feature","properties":{"n":"桂林南路 238 巷","v":"台東市","w":1.5,"c":1.5,"r":2},"geometry":{"type":"MultiPolygon","coordinates":[[[[121.14847,22.746795],[121.148518,22.746746],[121.147343,22.745657],[121.147306,22.745682],[121.14847,22.746785],[121.14847,22.746795]]]]}},{"type":"Feature","properties":{"n":"中華路一段889巷","v":"台東市","w":2,"c":2,"r":3},"geometry":{"type":"MultiPolygon","coordinates":[[[[121.14279,22.746528],[121.142801,22.746533],[121.143158,22.745993],[121.144555,22.74423],[121.146441,22.741751],[121.146417,22.741744],[121.144963,22.743666],[121.144298,22.744529],[121.143627,22.745365],[121.14315,22.745974],[121.14279,22.746528]]]]}},{"type":"Feature","properties":{"n":"雲南路","v":"台東市","w":4,"c":2.2,"r":41},"geometry":{"type":"MultiPolygon","coordinates":[[[[121.065891,22.70994],[121.065872,22.709967],[121.063031,22.71442],[121.065891,22.70994]]]]}}]}